Airport, CitySt, Weather, Time
KCSM,CUSTER OKLAHOMA,KCSM 131200Z AUTO 20022KT 10SM CLR 11/09 A2938 RMK T01100090 MADISHFCSM,12:00
KIML,CHASE NEBRASKA,KIML 261500Z AUTO 22004KT 10SM CLR 06/M04 A2975 RMK T00601040 MADISHFIML,15:00
KAQO,LLANO TEXAS,KAQO 231550Z AUTO 03009G14KT 10SM FEW041 SCT048 29/17 A3019 RMK AO2AQO,15:45
KVCT,GOLIAD TEXAS,KVCT 251400Z AUTO 20004KT 8SM FEW009 SCT015 OVC023 29/26 A2987 RMK T02900260 MADISHFVCT,14:00
KSPS,EDWARDS TEXAS,KSPS 081450Z AUTO 20014KT 10SM 32/22 A2989 RMK T03200220 MADISHFSPS,14:51
KCSM,CUSTER OKLAHOMA,KCSM 261400Z AUTO 20011KT 10SM CLR 06/02 A2945 RMK T00600020 MADISHFCSM,14:00
KCSM,CUSTER OKLAHOMA,KCSM 261850Z AUTO 26022KT 5SM HZ CLR 17/M02 A2946 RMK T01701020 MADISHFCSM,18:45
KRSL,CHEYENNE KANSAS,KRSL 091130Z AUTO 23007KT 10SM CLR M01/M04 A3006 RMK T10101040 MADISHFRSL,11:30
KOMA,GARDEN NEBRASKA,KOMA 011400Z AUTO 15005KT 10SM OVC100 01/M04 A3015 RMK T00101040 MADISHFOMA,14:00
KMLC,KIOWA OKLAHOMA,KMLC 161430Z AUTO 19007KT 10SM CLR 29/21 A2997 RMK T02900210 WND 16V23  MADISHFMLC,14:30
KLBL,BEAVER OKLAHOMA,KLBL 021230Z AUTO 23005KT 1/4SM -RA FG OVC003 02/02 A2994 RMK T00200020 MADISHFLBL,12:30
KDHT,HARTLEY TEXAS,KDHT 161710Z AUTO 19014KT 10SM CLR 04/M04 RMK T00401040 MADISHFDHT,17:17
KHZY,MADISON OHIO,KHZY 121000Z AUTO 00000KT 10SM OVC100 M08/M11 A3042 RMK T10801110 MADISHFHZY,10:00
KYNG,GREENE OHIO,KYNG 121000Z AUTO 09005KT 10SM FEW100 M08/M11 A3037 RMK T10801110 MADISHFYNG,10:00
KADG,FAYETTE OHIO,KADG 121000Z AUTO 07004KT 10SM CLR M05/M08 A3037 RMK T10501080 MADISHFADG,10:00
KSBM,SHEBOYGAN WISCONSIN,KSBM 120100Z AUTO 08011G16KT 10SM OVC019 M02/M06 A3013 RMK T10201060 MADISHFSBM,01:00
KMKE,MILWAUKEE WISCONSIN,KMKE 272300Z AUTO 21007KT 10SM CLR M15/M23 A3003 RMK T11501230 MADISHFMKE,23:00
KENW,KENOSHA WISCONSIN,KENW 272200Z AUTO 29005KT 10SM CLR M15/M23 A3006 RMK T11501230 MADISHFENW,22:00
KRAC,RACINE WISCONSIN,KRAC 272300Z AUTO 23003KT 10SM CLR M16/M24 A3006 RMK T11601240 MADISHFRAC,23:00
KY50,MARQUETTE WISCONSIN,KY50 112200Z AUTO 07008KT 10SM OVC016 M03/M06 A3013 RMK T10301060 MADISHFY50,22:00
KMKE,MILWAUKEE WISCONSIN,KMKE 111800Z AUTO 09011KT 7SM OVC012 M01/M05 A3017 RMK T10101050 MADISHFMKE,18:00
KRAC,RACINE WISCONSIN,KRAC 111800Z AUTO 09013KT 9SM OVC011 M02/M05 A3017 RMK T10201050 MADISHFRAC,18:00
KRAC,RACINE WISCONSIN,KRAC 181600Z AUTO 35005KT 10SM CLR M04/M11 A3020 RMK T10401110 MADISHFRAC,16:00
KENW,KENOSHA WISCONSIN,KENW 181600Z AUTO 02005KT 10SM CLR M03/M08 A3018 RMK T10301080 MADISHFENW,16:00
KMKE,MILWAUKEE WISCONSIN,KMKE 181600Z AUTO 33004KT 10SM SCT075 M04/M12 A3020 RMK T10401120 MADISHFMKE,16:00
KY50,MARQUETTE WISCONSIN,KY50 272300Z AUTO 18004KT 10SM CLR M16/M26 A3001 RMK T11601260 MADISHFY50,23:00
KMKE,MILWAUKEE WISCONSIN,KMKE 221100Z AUTO 17014KT 10SM CLR M06/M12 A3019 RMK T10601120 MADISHFMKE,11:00
KLBF,KEITH NEBRASKA,KLBF 131200Z AUTO 12008KT 1SM BR VV004 08/08 A2928 RMK T00800080 MADISHFLBF,12:00
KLBF,LOGAN NEBRASKA,KLBF 131200Z AUTO 12008KT 1SM BR VV004 08/08 A2928 RMK T00800080 MADISHFLBF,12:00
KOMA,GARDEN NEBRASKA,KOMA 101800Z AUTO 08016G26KT 10SM BKN055 17/06 A2951 RMK T01700060 MADISHFOMA,18:00
KLNK,LINCOLN NEBRASKA,KLNK 101800Z AUTO 08016KT 10SM CLR 18/07 A2943 RMK T01800070 MADISHFLNK,18:00
KIML,CHASE NEBRASKA,KIML 101800Z AUTO 01022G27KT 7SM OVC008 03/01 RMK T00300010 CIG 5V13  MADISHFIML,18:00
KAOH,MERCER OHIO,KAOH 192100Z AUTO 04022KT 1/4SM SN FZFG OVC008 M02/M04 A2971 RMK T10201040 MADISHFAOH,21:00
KYNG,GREENE OHIO,KYNG 192100Z AUTO 05010KT 1/2SM SN FZFG SCT007 BKN012 OVC019 M01/M02 A2977 RMK T10101020 MADISHFYNG,21:00
KZZV,LICKING OHIO,KZZV 192100Z AUTO 05007KT 1 1/2SM -RA BR OVC006 02/01 A2962 RMK P0000 T00200010 CIG 3V9  MADISHFZZV,21:00
KHZY,MADISON OHIO,KHZY 192100Z AUTO 04008KT 1 1/2SM -SN BR SCT008 BKN018 OVC027 M03/M04 A2985 RMK T10301040 MADISHFHZY,21:00
KCVG,KENTON KENTUCKY,KCVG 192100Z AUTO 02014KT 4SM -RA BR OVC004 02/02 A2953 RMK P0000 T00200020 MADISHFCVG,21:00
KYNG,WARREN OHIO,KYNG 121000Z AUTO 09005KT 10SM FEW100 M08/M11 A3037 RMK T10801110 MADISHFYNG,10:00
KILN,HIGHLAND OHIO,KILN 121000Z AUTO 10006KT 1SM -SN BR VV015 M03/M05 A3029 RMK T10301050 MADISHFILN,10:00
KEYE,FAYETTE INDIANA,KEYE 192100Z AUTO 03016G26KT 3SM -SN BKN015 OVC027 M02/M05 A2965 RMK T10201050 MADISHFEYE,21:00
KLUK,MONTGOMERY OHIO,KLUK 192100Z AUTO 02012KT 2SM -RA BR OVC007 03/02 A2956 RMK T00300020 MADISHFLUK,21:00
KHAO,ROSS OHIO,KHAO 121000Z AUTO 10003KT 1 1/2SM -SN BR FEW007 OVC018 M02/M03 A3031 RMK T10201030 MADISHFHAO,10:00
KMFD,BUTLER OHIO,KMFD 121000Z AUTO 13004KT 8SM CLR M06/M08 A3034 RMK T10601080 MADISHFMFD,10:00
KILN,HIGHLAND OHIO,KILN 192100Z AUTO 04014KT 2SM RA BR OVC003 01/00 A2955 RMK T00100000 MADISHFILN,21:00
KADG,FAYETTE OHIO,KADG 192100Z AUTO 05017KT 1SM -SN BR VV016 M07/M09 A2989 RMK T10701090 MADISHFADG,21:00
KMFD,BUTLER OHIO,KMFD 192100Z AUTO ///15KT 1/2SM SN FZFG OVC007 M03/M04 A2970 RMK P0000 T10301040 MADISHFMFD,21:00
KYNG,WARREN OHIO,KYNG 192100Z AUTO 05010KT 1/2SM SN FZFG SCT007 BKN012 OVC019 M01/M02 A2977 RMK T10101020 MADISHFYNG,21:00
KHSI,BLAINE NEBRASKA,KHSI 101800Z AUTO 06020G26KT 10SM CLR 14/06 A2940 RMK T01400060 MADISHFHSI,18:00
KODX,LOUP NEBRASKA,KODX 101800Z AUTO 03015KT 2SM -RA BR OVC003 03/02 A2954 RMK T00300020 MADISHFODX,18:00
KIRK,CLAY MISSOURI,KIRK 111400Z AUTO 14009KT 10SM OVC065 M01/M04 A3020 RMK T10101040 MADISHFIRK,14:00
KSTJ,NODAWAY MISSOURI,KSTJ 111500Z AUTO 15003KT 10SM OVC048 03/M02 A3014 RMK T00301020 MADISHFSTJ,15:00
KMBS,ARENAC MICHIGAN,KMBS 280500Z AUTO 09004KT 10SM CLR M18/M23 A3010 RMK T11801230 MADISHFMBS,05:00
KMBL,MANISTEE MICHIGAN,KMBL 280200Z AUTO 08005KT 9SM -SN OVC030 M16/M18 A3005 RMK T11601180 MADISHFMBL,02:00
KTVC,WEXFORD MICHIGAN,KTVC 280200Z AUTO 00000KT 10SM OVC031 M17/M19 RMK T11701190 MADISHFTVC,02:00
KDDC,FORD KANSAS,KDDC 112000Z AUTO 01012KT 2SM -RA BR OVC003 02/01 A2986 RMK P0000 T00200010 MADISHFDDC,20:00
KHTL,OGEMAW MICHIGAN,KHTL 280500Z AUTO 09003KT 10SM CLR M26/M28 A3002 RMK T12601280 MADISHFHTL,05:00
KMPV,ORANGE VERMONT,KMPV 191800Z AUTO 05003KT 10SM OVC065 M14/M19 A3026 RMK T11401190 MADISHFMPV,18:00
KMPV,WASHINGTON VERMONT,KMPV 191800Z AUTO 05003KT 10SM OVC065 M14/M19 A3026 RMK T11401190 MADISHFMPV,18:00
KVSF,WINDSOR VERMONT,KVSF 191800Z AUTO 06007KT 10SM OVC085 M07/M12 A3023 RMK T10701120 MADISHFVSF,18:00
KHYS,NESS KANSAS,KHYS 112000Z AUTO 03009KT 5SM -SN BR OVC004 01/01 RMK T00100010 MADISHFHYS,20:00
KMPV,ORANGE VERMONT,KMPV 291700Z AUTO ///19KT 2 1/2SM -SN BKN039 OVC050 M09/M12 RMK T10901120 MADISHFMPV,17:00
KVSF,WINDSOR VERMONT,KVSF 291700Z AUTO 00000KT 4SM -SN OVC025 M09/M12 A3001 RMK T10901120 MADISHFVSF,17:00
KHTL,GLADWIN MICHIGAN,KHTL 280500Z AUTO 09003KT 10SM CLR M26/M28 A3002 RMK T12601280 MADISHFHTL,05:00
KHTL,ROSCOMMON MICHIGAN,KHTL 280200Z AUTO 00000KT 10SM FEW030 M23/M25 A3002 RMK T12301250 MADISHFHTL,02:00
KSTJ,ATCHISON KANSAS,KSTJ 111500Z AUTO 15003KT 10SM OVC048 03/M02 A3014 RMK T00301020 MADISHFSTJ,15:00
KMCI,LEAVENWORTH KANSAS,KMCI 111400Z AUTO 13008KT 10SM OVC050 03/M02 A3012 RMK T00301020 MADISHFMCI,14:00
KSTJ,DONIPHAN KANSAS,KSTJ 111500Z AUTO 15003KT 10SM OVC048 03/M02 A3014 RMK T00301020 MADISHFSTJ,15:00
KLBL,MEADE KANSAS,KLBL 112000Z AUTO 34012KT 5SM -RA BR OVC004 02/02 A2986 RMK T00200020 CIG 4V8  MADISHFLBL,20:00
KHYS,TREGO KANSAS,KHYS 112000Z AUTO 03009KT 5SM -SN BR OVC004 01/01 RMK T00100010 MADISHFHYS,20:00
KGBD,RUSH KANSAS,KGBD 112000Z AUTO 06009KT 10SM -RA OVC004 02/02 A2992 RMK T00200020 MADISHFGBD,20:00
KBWI,CARROLL MARYLAND,KBWI 121700Z AUTO 00000KT 10SM BKN075 OVC090 01/M12 A3052 RMK T00101120 MADISHFBWI,17:00
KILG,CALVERT MARYLAND,KILG 121700Z AUTO 00000KT 10SM CLR 00/M14 A3054 RMK T00001140 MADISHFILG,17:00
KROA,ROCKINGHAM VIRGINIA,KROA 121500Z AUTO 12005KT 10SM SCT047 BKN079 OVC090 00/M09 A3050 RMK T00001090 MADISHFROA,15:00
KMKG,MUSKEGON MICHIGAN,KMKG 280100Z AUTO 07005KT 10SM SCT027 BKN030 M14/M18 A3007 RMK T11401180 MADISHFMKG,01:00
KCHO,WARREN VIRGINIA,KCHO 121500Z AUTO 00000KT 10SM FEW042 SCT075 OVC100 01/M08 A3051 RMK T00101080 MADISHFCHO,15:00
KGRR,NEWAYGO MICHIGAN,KGRR 280100Z AUTO 02004KT 10SM OVC031 M13/M18 A3006 RMK T11301180 MADISHFGRR,01:00
KIAD,FAIRFAX VIRGINIA,KIAD 121500Z AUTO 00000KT 10SM OVC085 00/M07 A3054 RMK T00001070 MADISHFIAD,15:00
KMIW,UNION IOWA,KMIW 112000Z AUTO 11007KT 10SM OVC029 01/M04 A3015 RMK T00101040 MADISHFMIW,20:00
KCMX,OSCEOLA MICHIGAN,KCMX 280100Z AUTO 09003KT 10SM SCT014 BKN028 M24/M28 A2997 RMK T12401280 MADISHFCMX,01:00
KLWD,DECATUR IOWA,KLWD 111800Z AUTO 13006KT 10SM SCT043 OVC060 02/M04 A3012 RMK T00201040 MADISHFLWD,18:00
KCID,MARION IOWA,KCID 112000Z AUTO 11008KT 10SM OVC075 M01/M06 A3019 RMK T10101060 MADISHFCID,20:00
KSLN,LINCOLN KANSAS,KSLN 111650Z AUTO 14004KT 5SM RA BR OVC016 03/02 A3006 RMK P0005 T00300020 MADISHFSLN,16:45
KRSL,RUSSELL KANSAS,KRSL 111650Z AUTO 13007KT 10SM BKN012 BKN035 OVC075 02/01 A3000 RMK T00200010 MADISHFRSL,16:45
KHUT,MCPHERSON KANSAS,KHUT 111720Z AUTO 13009KT 5SM RA BR OVC004 03/03 A3001 RMK P0000 T00300030 MADISHFHUT,17:15
KSLN,BARTON KANSAS,KSLN 112030Z AUTO 09005KT 5SM RA BR BKN006 BKN009 OVC046 03/03 RMK P0003 T00300030 MADISHFSLN,20:25
KBKL,HENRY OHIO,KBKL 190700Z AUTO 06008KT 6SM OVC033 M01/M05 A3018 RMK T10101050 MADISHFBKL,07:00
KBVX,FRANKLIN ARKANSAS,KBVX 190820Z AUTO 00000KT 2SM -RA BR OVC003 13/12 A2962 RMK T01300120 MADISHFBVX,08:15
KDDH,BENNINGTON VERMONT,KDDH 191600Z AUTO 00000KT 10SM OVC095 M07/M12 A3026 RMK T10701120 MADISHFDDH,16:00
KDFI,DEFIANCE OHIO,KDFI 190700Z AUTO 06010KT 10SM BKN012 OVC025 M03/M05 A3010 RMK T10301050 MADISHFDFI,07:00
KZZV,PUTNAM OHIO,KZZV 190700Z AUTO 08005KT 5SM BR CLR 00/M02 A3007 RMK T00001020 MADISHFZZV,07:00
KDFI,PAULDING OHIO,KDFI 190700Z AUTO 06010KT 10SM BKN012 OVC025 M03/M05 A3010 RMK T10301050 MADISHFDFI,07:00
KDDH,BENNINGTON VERMONT,KDDH 220200Z AUTO 10007KT 10SM OVC110 06/M01 A2979 RMK T00601010 MADISHFDDH,02:00
KMCI,HOLT MISSOURI,KMCI 111500Z AUTO 16009KT 10SM BKN044 OVC065 04/M02 A3013 RMK T00401020 MADISHFMCI,15:00
KLWD,GENTRY MISSOURI,KLWD 111500Z AUTO 15006KT 10SM SCT007 OVC032 M01/M03 A3014 RMK T10101030 MADISHFLWD,15:00
KPOF,BUCHANAN MISSOURI,KPOF 111500Z AUTO 09003KT 9SM BKN070 OVC085 M01/M03 A3035 RMK T10101030 MADISHFPOF,15:00
KCGI,JACKSON MISSOURI,KCGI 111400Z AUTO 13003KT 10SM OVC079 M01/M06 A3035 RMK T10101060 MADISHFCGI,14:00
KLWD,MERCER MISSOURI,KLWD 111500Z AUTO 15006KT 10SM SCT007 OVC032 M01/M03 A3014 RMK T10101030 MADISHFLWD,15:00
KIRK,ADAIR MISSOURI,KIRK 111500Z AUTO 12007KT 10SM OVC060 M01/M04 A3020 RMK T10101040 MADISHFIRK,15:00
KLWD,WORTH MISSOURI,KLWD 111500Z AUTO 15006KT 10SM SCT007 OVC032 M01/M03 A3014 RMK T10101030 MADISHFLWD,15:00
KBTV,ESSEX VERMONT,KBTV 121900Z AUTO 19003KT 10SM OVC090 M09/M17 A3026 RMK T10901170 MADISHFBTV,19:00
KMPV,ORANGE VERMONT,KMPV 121900Z AUTO 05003KT 10SM OVC075 M11/M18 A3028 RMK T11101180 MADISHFMPV,19:00
KRDG,SCHUYLKILL PENNSYLVANIA,KRDG 111700Z AUTO 32003KT 10SM OVC014 00/M02 A3028 RMK T00001020 MADISHFRDG,17:00
KLWD,SALINE MISSOURI,KLWD 111200Z AUTO 14008KT 10SM OVC033 00/M06 A3015 RMK T00001060 MADISHFLWD,12:00
KAGC,FULTON PENNSYLVANIA,KAGC 111500Z AUTO 16004KT 1SM -SN BR FEW003 BKN007 OVC038 00/00 A3015 RMK P0000 T00000000 MADISHFAGC,15:00
KMPV,WASHINGTON VERMONT,KMPV 121800Z AUTO 00000KT 10SM OVC100 M12/M18 RMK T11201180 MADISHFMPV,18:00
KJEF,LINN MISSOURI,KJEF 111500Z AUTO 13008KT 10SM BKN055 OVC079 03/M04 A3025 RMK T00301040 MADISHFJEF,15:00
KIRK,MACON MISSOURI,KIRK 111500Z AUTO 12007KT 10SM OVC060 M01/M04 A3020 RMK T10101040 MADISHFIRK,15:00
KMKC,RANDOLPH MISSOURI,KMKC 111500Z AUTO 14005KT 10SM -RA FEW048 OVC060 04/00 A3015 RMK T00400000 MADISHFMKC,15:00
KHFD,HARTFORD CONNECTICUT,KHFD 191900Z AUTO 13006KT 10SM OVC050 02/M07 A3019 RMK T00201070 MADISHFHFD,19:00
KALO,BUTLER IOWA,KALO 271800Z AUTO 16007KT 10SM CLR M16/M21 A3009 RMK T11601210 MADISHFALO,18:00
KMIW,GRUNDY IOWA,KMIW 271800Z AUTO 16006KT 10SM FEW039 OVC060 M17/M19 A3006 RMK T11701190 MADISHFMIW,18:00
KUGN,MCHENRY ILLINOIS,KUGN 272230Z AUTO 00000KT 10SM CLR M14/M24 A3005 RMK T11401240 MADISHFUGN,22:30
KCID,LOUISA IOWA,KCID 181600Z AUTO 08006KT 10SM BKN015 BKN019 M06/M08 A3013 RMK T10601080 MADISHFCID,16:00
KBTV,ESSEX VERMONT,KBTV 191900Z AUTO 32010KT 2SM -SN BKN028 OVC046 M19/M24 A3034 RMK T11901240 MADISHFBTV,19:00
KRSL,OSBORNE KANSAS,KRSL 111900Z AUTO 07006KT 4SM RA BR OVC004 02/02 A2995 RMK P0000 T00200020 MADISHFRSL,19:00
KALO,BREMER IOWA,KALO 271800Z AUTO 16007KT 10SM CLR M16/M21 A3009 RMK T11601210 MADISHFALO,18:00
KHTL,ALGER MICHIGAN,KHTL 262200Z AUTO 17009KT 10SM OVC031 M13/M18 A2992 RMK T11301180 MADISHFHTL,22:00
KPIA,PEORIA ILLINOIS,KPIA 190100Z AUTO 09011KT 8SM OVC013 M01/M03 A3004 RMK T10101030 MADISHFPIA,01:00
KMIE,RANDOLPH INDIANA,KMIE 190530Z AUTO 10013KT 6SM HZ OVC015 01/M02 A3002 RMK T00101020 MADISHFMIE,05:30
KLXT,CAMDEN MISSOURI,KLXT 111400Z AUTO /////KT 10SM -RA OVC047 03/00 A3013 RMK T00300000 MADISHFLXT,14:00
KOFP,CAROLINE VIRGINIA,KOFP 121800Z AUTO 00000KT 10SM BKN065 OVC079 03/M08 A3052 RMK T00301080 MADISHFOFP,18:00
KROA,BOTETOURT VIRGINIA,KROA 121240Z AUTO 12006KT 10SM OVC070 M01/M10 A3045 RMK T10101100 MADISHFROA,12:40
KMKT,NICOLLET MINNESOTA,KMKT 271700Z AUTO 14008KT 10SM CLR M21/M24 A3005 RMK T12101240 MADISHFMKT,17:00
KCMX,ONTONAGON MICHIGAN,KCMX 240800Z AUTO 27004KT 6SM -SN BKN011 OVC036 M08/M11 A2965 RMK T10801110 MADISHFCMX,08:00
KCMX,KEWEENAW MICHIGAN,KCMX 262200Z AUTO 24012KT 1SM -SN VV018 M16/M21 A2978 RMK T11601210 MADISHFCMX,22:00
KBMI,TAZEWELL ILLINOIS,KBMI 190100Z AUTO 08012KT 3SM BR OVC011 M01/M02 A3005 RMK T10101020 MADISHFBMI,01:00
KCHO,WARREN VIRGINIA,KCHO 200300Z AUTO 00000KT 10SM CLR 03/M06 A3056 RMK T00301060 MADISHFCHO,03:00
KFNB,NEMAHA NEBRASKA,KFNB 211800Z AUTO 12018G26KT 10SM FEW013 M06/M09 A3001 RMK T10601090 MADISHFFNB,18:00
KIAD,FAIRFAX VIRGINIA,KIAD 200500Z AUTO 00000KT 10SM CLR 00/M08 A3056 RMK T00001080 MADISHFIAD,05:00
KCMX,KEWEENAW MICHIGAN,KCMX 070100Z AUTO 12017KT 10SM CLR M03/M08 A3018 RMK T10301080 MADISHFCMX,01:00
KAUW,MARATHON WISCONSIN,KAUW 280100Z AUTO 13004KT 10SM OVC100 M18/M28 A2989 RMK T11801280 MADISHFAUW,01:00
KLNR,RICHLAND WISCONSIN,KLNR 220830Z AUTO 13011KT 10SM CLR M09/M16 A3018 RMK T10901160 MADISHFLNR,08:30
KLYH,BEDFORD VIRGINIA,KLYH 121250Z AUTO 04004KT 10SM SCT055 OVC070 M01/M09 A3045 RMK T10101090 MADISHFLYH,12:45
KEYE,FAYETTE INDIANA,KEYE 121000Z AUTO 09004KT 1SM -SN BR VV012 M02/M03 A3026 RMK P0000 T10201030 MADISHFEYE,10:00
KCVG,KENTON KENTUCKY,KCVG 122000Z AUTO 08010KT 5SM BR FEW008 SCT060 OVC075 01/M02 A3020 RMK T00101020 MADISHFCVG,20:00
KCWI,CLINTON IOWA,KCWI 181500Z AUTO 00000KT 10SM OVC018 M03/M06 A3017 RMK T10301060 MADISHFCWI,15:00
KCVG,DELAWARE INDIANA,KCVG 190530Z AUTO 11010KT 8SM OVC019 02/M01 A3001 RMK T00201010 MADISHFCVG,05:30
KLOU,MADISON INDIANA,KLOU 190530Z AUTO 09010KT 10SM BKN021 OVC038 05/01 A2994 RMK T00500010 MADISHFLOU,05:30
KHTL,ALGER MICHIGAN,KHTL 070100Z AUTO 10010KT 10SM CLR M03/M09 A3032 RMK T10301090 MADISHFHTL,01:00
KMNM,MENOMINEE MICHIGAN,KMNM 062300Z AUTO 08008KT 10SM OVC025 M01/M05 A3029 RMK T10101050 MADISHFMNM,23:00
KMIW,MARSHALL IOWA,KMIW 221500Z AUTO 12009KT 1 1/2SM BR OVC004 M04/M04 A2992 RMK T10401040 MADISHFMIW,15:00
KCHO,CAMPBELL VIRGINIA,KCHO 121330Z AUTO 20003KT 10SM FEW039 SCT060 OVC079 00/M08 A3050 RMK T00001080 MADISHFCHO,13:25
KLUK,MONTGOMERY OHIO,KLUK 121000Z AUTO 03003KT 2SM -SN BR BKN012 OVC025 M02/M03 A3032 RMK T10201030 MADISHFLUK,10:00
KIND,LAWRENCE INDIANA,KIND 190400Z AUTO 11009KT 8SM OVC009 01/M01 A3004 RMK T00101010 MADISHFIND,04:00
KJHW,WARREN PENNSYLVANIA,KJHW 191300Z AUTO 05005KT 1SM -SN BR OVC013 M08/M08 A3011 RMK T10801080 MADISHFJHW,13:00
KPMV,MILLS IOWA,KPMV 120730Z AUTO 02005KT 1 1/4SM -SN OVC003 00/00 A3010 RMK AO2 P0001 T00001002PMV,07:25
KRFD,WINNEBAGO ILLINOIS,KRFD 182000Z AUTO 05012KT 1 1/2SM -SN BKN019 OVC032 M04/M07 A3014 RMK T10401070 MADISHFRFD,20:00
KMNM,MENOMINEE MICHIGAN,KMNM 280100Z AUTO 00000KT 10SM CLR M20/M25 A3004 RMK T12001250 MADISHFMNM,01:00
KCMX,ONTONAGON MICHIGAN,KCMX 290700Z AUTO 04008KT 10SM BKN100 M15/M21 A2968 RMK T11501210 MADISHFCMX,07:00
KERI,MCKEAN PENNSYLVANIA,KERI 191300Z AUTO 07010KT 2 1/2SM -SN BR OVC028 M04/M07 A3015 RMK T10401070 MADISHFERI,13:00
KHZY,PERRY OHIO,KHZY 191900Z AUTO 04006KT 1/2SM -SN FZFG VV014 M03/M05 A2990 RMK T10301050 MADISHFHZY,19:00
KMTW,KEWAUNEE WISCONSIN,KMTW 280100Z AUTO 00000KT 10SM CLR M21/M25 A3005 RMK T12101250 MADISHFMTW,01:00
KLWD,DECATUR IOWA,KLWD 221500Z AUTO 14009KT 2 1/2SM BR OVC004 M01/M02 A2984 RMK T10101020 MADISHFLWD,15:00
KRPJ,LEE ILLINOIS,KRPJ 182030Z AUTO 05014KT 7SM OVC017 M03/M05 A3014 RMK AO2 T10341055RPJ,20:30
KLYH,AMHERST VIRGINIA,KLYH 121400Z AUTO 06005KT 10SM OVC090 M01/M09 A3045 RMK T10101090 MADISHFLYH,14:00
KSUX,LEE IOWA,KSUX 111900Z AUTO 00000KT 10SM CLR 01/M03 A3010 RMK T00101030 MADISHFSUX,19:00
KCMX,KEWEENAW MICHIGAN,KCMX 290700Z AUTO 04008KT 10SM BKN100 M15/M21 A2968 RMK T11501210 MADISHFCMX,07:00
KBTV,ESSEX VERMONT,KBTV 081900Z AUTO ///12G18KT 10SM BKN012 OVC035 02/M01 A2979 RMK T00201010 MADISHFBTV,19:00
KHNB,JASPER INDIANA,KHNB 120600Z AUTO 09008KT 1 1/2SM -SN BR BKN006 BKN011 OVC016 M01/M02 A3026 RMK T10101020 CIG 3V8  MADISHFHNB,06:00
KGSH,BENTON INDIANA,KGSH 120400Z AUTO 07004KT 7SM FEW075 M03/M06 A3035 RMK T10301060 MADISHFGSH,04:00
KOSH,WINNEBAGO WISCONSIN,KOSH 280100Z AUTO 17004KT 10SM CLR M19/M24 A3000 RMK T11901240 MADISHFOSH,01:00
KMTW,MANITOWOC WISCONSIN,KMTW 280100Z AUTO 00000KT 10SM CLR M21/M25 A3005 RMK T12101250 MADISHFMTW,01:00
KRIC,RICHMOND VIRGINIA,KRIC 121800Z AUTO 17003KT 10SM FEW060 SCT079 OVC090 03/M09 A3050 RMK T00301090 VRB03KT  MADISHFRIC,18:00
KCID,MARION IOWA,KCID 221500Z AUTO 13009KT 2SM BR OVC009 M06/M06 A2995 RMK T10601060 MADISHFCID,15:00
KUGN,MCHENRY ILLINOIS,KUGN 181700Z AUTO 34004KT 10SM OVC024 M03/M09 A3020 RMK T10301090 VRB04KT  MADISHFUGN,17:00
KSET,KANE ILLINOIS,KSET 182030Z AUTO 12011KT 6SM BR OVC009 02/01 A3002 RMK T00200010 CIG 8V12  MADISHFSET,20:30
KLSE,DAKOTA MINNESOTA,KLSE 271900Z AUTO 00000KT 10SM CLR M16/M24 A3006 RMK T11601240 MADISHFLSE,19:00
KJLN,SCOTLAND MISSOURI,KJLN 111900Z AUTO 15008KT 7SM -RA SCT009 BKN027 OVC037 04/02 A3009 RMK T00400020 MADISHFJLN,19:00
KCOU,CLARK MISSOURI,KCOU 111900Z AUTO 13007KT 1SM -SN BR BKN004 OVC021 01/00 A3017 RMK P0002 T00100000 MADISHFCOU,19:00
KMSN,DOOR WISCONSIN,KMSN 280100Z AUTO 13007KT 10SM OVC120 M17/M22 A2995 RMK T11701220 MADISHFMSN,01:00
KBIV,ALLEGAN MICHIGAN,KBIV 290100Z AUTO 31007KT 2SM -SN OVC016 M09/M12 A2962 RMK T10901120 MADISHFBIV,01:00
KEAU,CHIPPEWA WISCONSIN,KEAU 272100Z AUTO 13005KT 10SM CLR M17/M25 A2995 RMK T11701250 MADISHFEAU,21:00
KEAU,DUNN WISCONSIN,KEAU 272100Z AUTO 13005KT 10SM CLR M17/M25 A2995 RMK T11701250 MADISHFEAU,21:00
KDBQ,DUBUQUE IOWA,KDBQ 220800Z AUTO 15017KT 10SM CLR M11/M15 A3011 RMK T11101150 MADISHFDBQ,08:00
KFOD,JONES IOWA,KFOD 220800Z AUTO 14008KT 10SM FEW016 OVC045 M07/M10 A2990 RMK T10701100 MADISHFFOD,08:00
KMPV,WASHINGTON VERMONT,KMPV 081900Z AUTO 15004KT 10SM BKN009 OVC016 M02/M04 A2985 RMK T10201040 VRB04KT  MADISHFMPV,19:00
KMKG,MUSKEGON MICHIGAN,KMKG 290100Z AUTO 34008KT 6SM -SN OVC016 M09/M12 A2962 RMK T10901120 MADISHFMKG,01:00
KLWC,RENO KANSAS,KLWC 190910Z AUTO 04004KT 8SM CLR M06/M09 A3052 RMK T10601090 MADISHFLWC,09:10
KHUT,KINGMAN KANSAS,KHUT 190820Z AUTO 05008KT 9SM FEW120 M06/M08 A3039 RMK T10601080 MADISHFHUT,08:20
KEST,EMMET IOWA,KEST 180800Z AUTO 04003KT 10SM CLR M16/M17 A3011 RMK T11601170 MADISHFEST,08:00
KBRL,KOSSUTH IOWA,KBRL 180800Z AUTO 35006KT 10SM OVC024 M02/M06 A3013 RMK T10201060 MADISHFBRL,08:00
KMSN,PIERCE WISCONSIN,KMSN 272000Z AUTO 09003KT 10SM CLR M16/M25 A3004 RMK T11601250 MADISHFMSN,20:00
KMFD,SHELBY OHIO,KMFD 192100Z AUTO ///15KT 1/2SM SN FZFG OVC007 M03/M04 A2970 RMK P0000 T10301040 MADISHFMFD,21:00
KDAY,UNION OHIO,KDAY 192100Z AUTO 02019KT 2SM -RA BR OVC004 01/M01 A2963 RMK T00101010 MADISHFDAY,21:00
KPOF,PULASKI MISSOURI,KPOF 111400Z AUTO 08005KT 6SM UP FEW060 OVC090 M01/M04 A3034 RMK P0000 T10101040 MADISHFPOF,14:00
KCOU,CLARK MISSOURI,KCOU 181500Z AUTO 11006KT 2 1/2SM BR OVC003 01/01 A3006 RMK T00100010 MADISHFCOU,15:00
KCWI,CLINTON IOWA,KCWI 220900Z AUTO 12013KT 10SM SCT065 M09/M12 A3013 RMK T10901120 MADISHFCWI,09:00
KEWK,SEDGWICK KANSAS,KEWK 190850Z AUTO 07009KT 10SM OVC110 M07/M08 A3040 RMK T10701080 MADISHFEWK,08:50
KAMW,STORY IOWA,KAMW 221500Z AUTO 10005KT 2SM BR OVC004 M04/M05 A2993 RMK T10401050 MADISHFAMW,15:00
KALO,BUTLER IOWA,KALO 221600Z AUTO 13007KT 1 1/2SM BR OVC006 M05/M06 A2995 RMK T10501060 MADISHFALO,16:00
KEST,EMMET IOWA,KEST 271700Z AUTO 15010KT 10SM OVC050 M19/M21 A3000 RMK T11901210 MADISHFEST,17:00
KUCP,MERCER PENNSYLVANIA,KUCP 181310Z AUTO 27005KT 5SM -RA BR OVC004 01/00 A3004 RMK T00100000 MADISHFUCP,13:10
KDUJ,CLARION PENNSYLVANIA,KDUJ 181310Z AUTO 26006KT 1SM -SN BR OVC003 M02/M03 A2995 RMK T10201030 MADISHFDUJ,13:10
KSET,CARROLL ILLINOIS,KSET 181200Z AUTO 10003KT 6SM BR BKN015 OVC026 01/00 A3012 RMK T00100000 MADISHFSET,12:00
KMPV,ORANGE VERMONT,KMPV 081900Z AUTO 15004KT 10SM BKN009 OVC016 M02/M04 A2985 RMK T10201040 VRB04KT  MADISHFMPV,19:00
KVSF,WINDSOR VERMONT,KVSF 081900Z AUTO 00000KT 10SM OVC007 M02/M03 A2987 RMK T10201030 MADISHFVSF,19:00
KJST,CAMBRIA PENNSYLVANIA,KJST 191300Z AUTO 14005KT 9SM OVC015 M02/M04 A3004 RMK T10201040 MADISHFJST,13:00
KJST,SOMERSET PENNSYLVANIA,KJST 191300Z AUTO 14005KT 9SM OVC015 M02/M04 A3004 RMK T10201040 MADISHFJST,13:00
KAOO,BEDFORD PENNSYLVANIA,KAOO 191300Z AUTO 13004KT 9SM M01/M04 A3012 RMK T10101040 MADISHFAOO,13:00
KGRR,NEWAYGO MICHIGAN,KGRR 290100Z AUTO 01004KT 2SM -SN BR OVC011 M09/M11 A2954 RMK P0000 T10901110 MADISHFGRR,01:00
KBRL,KOSSUTH IOWA,KBRL 271700Z AUTO 10003KT 10SM SCT009 BKN079 OVC095 M13/M17 A3015 RMK T11301170 MADISHFBRL,17:00
KFOD,HUMBOLDT IOWA,KFOD 271700Z AUTO 18007KT 9SM -SN OVC045 M15/M19 A3006 RMK T11501190 MADISHFFOD,17:00
KPHF,CARROLL VIRGINIA,KPHF 121100Z AUTO 07004KT 10SM UP FEW120 00/M05 A3048 RMK P0000 T00001050 MADISHFPHF,11:00
KBTP,BUTLER PENNSYLVANIA,KBTP 181310Z AUTO 27004KT 1SM -SN BR OVC003 01/00 A3002 RMK T00100000 MADISHFBTP,13:10
KUCP,ARMSTRONG PENNSYLVANIA,KUCP 181310Z AUTO 27005KT 5SM -RA BR OVC004 01/00 A3004 RMK T00100000 MADISHFUCP,13:10
KAGC,LAWRENCE PENNSYLVANIA,KAGC 181310Z AUTO 27007KT 3SM -SN BR OVC004 01/01 A3002 RMK T00100010 MADISHFAGC,13:10
KCMX,KEWEENAW MICHIGAN,KCMX 240500Z AUTO 00000KT 8SM -SN SCT014 OVC040 M08/M11 A2969 RMK AO2 P0000 T10781106CMX,05:00
KUCP,COLUMBIANA OHIO,KUCP 181310Z AUTO 27005KT 5SM -RA BR OVC004 01/00 A3004 RMK T00100000 MADISHFUCP,13:10
KLHQ,CARROLL OHIO,KLHQ 181310Z AUTO 30007KT 5SM BR OVC016 01/M01 A3011 RMK T00101010 MADISHFLHQ,13:10
KCVG,HARRISON OHIO,KCVG 181310Z AUTO 30006KT 9SM OVC009 01/M01 A3012 RMK T00101010 MADISHFCVG,13:10
KSET,CARROLL ILLINOIS,KSET 221000Z AUTO 12013KT 10SM OVC039 M03/M08 A3012 RMK T10301080 MADISHFSET,10:00
KEVV,JOHNSON INDIANA,KEVV 190530Z AUTO 08009KT 10SM OVC033 04/03 A2988 RMK T00400030 MADISHFEVV,05:30
KBWI,CARROLL MARYLAND,KBWI 200700Z AUTO 00000KT 10SM CLR 01/M09 A3060 RMK T00101090 MADISHFBWI,07:00
KIOW,BUCHANAN IOWA,KIOW 181200Z AUTO 28005KT 10SM OVC014 M05/M08 A3014 RMK T10501080 MADISHFIOW,12:00
KAZO,KALAMAZOO MICHIGAN,KAZO 290100Z AUTO 25018KT 6SM BR BKN009 OVC014 M04/M07 A2957 RMK T10401070 CIG 8V12  MADISHFAZO,01:00
KBLF,BLAND VIRGINIA,KBLF 121120Z AUTO 14005KT 10SM SCT015 OVC043 M02/M08 A3029 RMK T10201080 VRB05KT  MADISHFBLF,11:15
KPHD,TUSCARAWAS OHIO,KPHD 181310Z AUTO 30004KT 7SM OVC011 01/M01 A3007 RMK T00101010 MADISHFPHD,13:10
KDBQ,DUBUQUE IOWA,KDBQ 181200Z AUTO 00000KT 10SM OVC015 M06/M09 A3010 RMK T10601090 MADISHFDBQ,12:00
KFOD,JONES IOWA,KFOD 181500Z AUTO 07011KT 10SM BKN090 OVC110 M08/M11 A3010 RMK T10801110 MADISHFFOD,15:00
KCMI,CHAMPAIGN ILLINOIS,KCMI 190200Z AUTO 08010KT 6SM BR OVC023 01/M01 A3004 RMK T00101010 MADISHFCMI,02:00
KCWI,FULTON ILLINOIS,KCWI 182320Z AUTO 07014KT 10SM OVC012 M04/M06 A3009 RMK T10401060 MADISHFCWI,23:15
KCID,MARION IOWA,KCID 181500Z AUTO 05007KT 10SM BKN015 OVC095 M07/M09 A3012 RMK T10701090 MADISHFCID,15:00
KDKK,CATTARAUGUS NEW YORK,KDKK 191100Z AUTO 05008KT 2 1/2SM -SN OVC030 M05/M08 A3020 RMK T10501080 MADISHFDKK,11:00
KHTL,ALGER MICHIGAN,KHTL 241400Z AUTO 24005KT 10SM OVC032 M07/M10 A2969 RMK T10701100 MADISHFHTL,14:00
KHUF,MARSHALL ILLINOIS,KHUF 190100Z AUTO 10009KT 10SM BKN016 OVC021 02/M01 A3005 RMK T00201010 MADISHFHUF,01:00
KCMX,ONTONAGON MICHIGAN,KCMX 120700Z AUTO 11012KT 10SM CLR M08/M12 A3012 RMK T10801120 MADISHFCMX,07:00
KSTJ,NODAWAY MISSOURI,KSTJ 192220Z AUTO 10013KT 8SM BKN110 M02/M06 A3026 RMK T10201060 MADISHFSTJ,22:15
KHTL,ALGER MICHIGAN,KHTL 121000Z AUTO 08016G22KT 10SM OVC023 M06/M09 A2995 RMK T10601090 MADISHFHTL,10:00
KMNM,MENOMINEE MICHIGAN,KMNM 120400Z AUTO 09011KT 10SM OVC016 M03/M06 A3015 RMK T10301060 MADISHFMNM,04:00
KPKD,HUBBARD MINNESOTA,KPKD 061200Z AUTO 35003KT 10SM OVC036 M15/M18 A3005 RMK T11501180 MADISHFPKD,12:00
KHTL,ALGER MICHIGAN,KHTL 141900Z AUTO 18008KT 10SM FEW075 BKN095 BKN110 M01/M05 A2960 RMK T10101050 MADISHFHTL,19:00
KCXY,BERKS PENNSYLVANIA,KCXY 201030Z AUTO 00000KT 10SM BKN120 M01/M09 A3054 RMK T10101090 MADISHFCXY,10:30
KCMX,ONTONAGON MICHIGAN,KCMX 141700Z AUTO 14005KT 10SM SCT016 OVC041 M03/M08 A2954 RMK T10301080 MADISHFCMX,17:00
KHTL,ALGER MICHIGAN,KHTL 201200Z AUTO 12005KT 10SM OVC060 M08/M13 A3025 RMK T10801130 MADISHFHTL,12:00
KCMX,BARAGA MICHIGAN,KCMX 201200Z AUTO 19003KT 10SM CLR M13/M18 A3012 RMK T11301180 MADISHFCMX,12:00
KMNM,MENOMINEE MICHIGAN,KMNM 200700Z AUTO 00000KT 4SM HZ CLR M14/M17 A3036 RMK T11401170 MADISHFMNM,07:00
KJLN,SHERMAN KANSAS,KJLN 230450Z AUTO 13007KT 10SM OVC006 07/06 A2993 RMK T00700060 MADISHFJLN,04:45
KGLD,WALLACE KANSAS,KGLD 230400Z AUTO 09008KT 2SM BR OVC002 00/00 RMK T00000000 MADISHFGLD,04:00
KHLC,LOGAN KANSAS,KHLC 230500Z AUTO 06004KT 1/4SM FG VV002 00/00 A2989 RMK T00000000 MADISHFHLC,05:00
KICT,WICHITA KANSAS,KICT 230420Z AUTO 09003KT 3SM -RA BR BKN004 OVC009 04/04 A2990 RMK P0000 T00400040 MADISHFICT,04:15
KABE,NORTHAMPTON PENNSYLVANIA,KABE 112200Z AUTO 04005KT 10SM OVC070 02/M05 A3028 RMK T00201050 MADISHFABE,22:00
KCMX,BARAGA MICHIGAN,KCMX 040300Z AUTO 04011KT 10SM OVC006 M07/M09 A2982 RMK T10701090 CIG 5V10  MADISHFCMX,03:00
KCMX,ONTONAGON MICHIGAN,KCMX 040300Z AUTO 04011KT 10SM OVC006 M07/M09 A2982 RMK T10701090 CIG 5V10  MADISHFCMX,03:00
KMCI,HOLT MISSOURI,KMCI 192220Z AUTO 08015KT 10SM OVC110 M02/M07 A3019 RMK T10201070 MADISHFMCI,22:15
KLWD,WORTH MISSOURI,KLWD 192220Z AUTO 07008KT 10SM FEW079 FEW095 BKN120 M04/M08 A3028 RMK T10401080 MADISHFLWD,22:15
KHTL,ALGER MICHIGAN,KHTL 071400Z AUTO 10005KT 10SM OVC004 M06/M07 A2995 RMK T10601070 MADISHFHTL,14:00
KMFD,ASHLAND OHIO,KMFD 190900Z AUTO 04009KT 6SM BR OVC021 M03/M04 A3006 RMK T10301040 MADISHFMFD,09:00
KBKL,ERIE OHIO,KBKL 190900Z AUTO 06009KT 10SM BKN055 OVC070 M02/M05 A3014 RMK T10201050 MADISHFBKL,09:00
KLPR,LORAIN OHIO,KLPR 191000Z AUTO 05013KT 10SM BKN011 OVC029 M03/M06 A3012 RMK T10301060 MADISHFLPR,10:00
KAZO,OTSEGO MICHIGAN,KAZO 120900Z AUTO 08011KT 5SM -FZRA BR OVC009 M01/M03 A2978 RMK P0000 T10101030 CIG 7V12  MADISHFAZO,09:00
KAPN,ALPENA MICHIGAN,KAPN 120900Z AUTO 10014G23KT 10SM CLR M04/M09 A3013 RMK T10401090 MADISHFAPN,09:00
KHFD,HARTFORD CONNECTICUT,KHFD 031900Z AUTO 00000KT 10SM CLR 06/M07 A3005 RMK T00601070 MADISHFHFD,19:00
KIJD,TOLLAND CONNECTICUT,KIJD 031900Z AUTO 25002KT 10SM CLR 05/M07 A3004 RMK T00501070 MADISHFIJD,19:00
KIJD,WINDHAM CONNECTICUT,KIJD 031900Z AUTO 25002KT 10SM CLR 05/M07 A3004 RMK T00501070 MADISHFIJD,19:00
KIJD,TOLLAND CONNECTICUT,KIJD 230100Z AUTO 27009KT 10SM -RA SCT019 BKN028 OVC085 03/01 A2931 RMK T00300010 MADISHFIJD,01:00
KSLN,LINCOLN KANSAS,KSLN 022100Z AUTO 03015KT 10SM FEW024 OVC079 M02/M08 RMK T10201080 MADISHFSLN,21:00
KBKL,GEAUGA OHIO,KBKL 191000Z AUTO 05010KT 10SM BKN036 OVC110 M02/M05 A3013 RMK T10201050 MADISHFBKL,10:00
KBJJ,MEDINA OHIO,KBJJ 190900Z AUTO 08010KT 9SM OVC027 M02/M05 A3010 RMK T10201050 MADISHFBJJ,09:00
KSUE,LINCOLN WISCONSIN,KSUE 110300Z AUTO 04013KT 10SM OVC095 01/M07 A3013 RMK T00101070 MADISHFSUE,03:00
KSLN,BARTON KANSAS,KSLN 021910Z AUTO 01014KT 10SM BKN026 M02/M07 RMK T10201070 MADISHFSLN,19:05
KMBL,MANISTEE MICHIGAN,KMBL 120500Z AUTO 09014KT 10SM OVC016 M03/M06 A3007 RMK T10301060 MADISHFMBL,05:00
KTVC,WEXFORD MICHIGAN,KTVC 120500Z AUTO 09014KT 10SM OVC018 M03/M07 RMK T10301070 MADISHFTVC,05:00
KBJJ,HOLMES OHIO,KBJJ 190900Z AUTO 08010KT 9SM OVC027 M02/M05 A3010 RMK T10201050 MADISHFBJJ,09:00
KTDZ,PORTAGE OHIO,KTDZ 191000Z AUTO 06009KT 10SM BKN009 BKN014 OVC019 M03/M06 A3013 RMK T10301060 CIG 7V13  MADISHFTDZ,10:00
KMSN,VILAS WISCONSIN,KMSN 231800Z AUTO 07005KT 4SM BR OVC008 01/M01 A2988 RMK T00101010 MADISHFMSN,18:00
KGRB,ONEIDA WISCONSIN,KGRB 231800Z AUTO 34009KT 8SM BKN023 OVC037 02/M02 A2995 RMK T00201020 MADISHFGRB,18:00
KSUE,LINCOLN WISCONSIN,KSUE 231800Z AUTO 11017KT 10SM -RA FEW031 OVC045 01/M03 A2995 RMK T00101030 MADISHFSUE,18:00
KHTL,ROSCOMMON MICHIGAN,KHTL 120500Z AUTO 09016G22KT 10SM OVC014 M04/M08 A3013 RMK T10401080 MADISHFHTL,05:00
KHTL,OGEMAW MICHIGAN,KHTL 120500Z AUTO 09016G22KT 10SM OVC014 M04/M08 A3013 RMK T10401080 MADISHFHTL,05:00
KAZO,OTSEGO MICHIGAN,KAZO 280200Z AUTO 21004KT 10SM OVC029 M14/M18 A3006 RMK T11401180 MADISHFAZO,02:00
KAUW,MARATHON WISCONSIN,KAUW 231800Z AUTO 13012G19KT 10SM SCT019 OVC025 M01/M04 A2987 RMK T10101040 MADISHFAUW,18:00
KIMT,FLORENCE WISCONSIN,KIMT 231800Z AUTO 10009KT 4SM BR FEW013 FEW019 OVC046 M02/M03 RMK T10201030 MADISHFIMT,18:00
KHTL,GLADWIN MICHIGAN,KHTL 120500Z AUTO 09016G22KT 10SM OVC014 M04/M08 A3013 RMK T10401080 MADISHFHTL,05:00
KMBS,ARENAC MICHIGAN,KMBS 120500Z AUTO 08013KT 10SM OVC018 M04/M07 A3015 RMK T10401070 MADISHFMBS,05:00
KBOS,SUFFOLK MASSACHUSETTS,KBOS 032100Z AUTO 11011KT 10SM OVC050 03/M02 A3004 RMK T00301020 MADISHFBOS,21:00
KAPN,ALPENA MICHIGAN,KAPN 280500Z AUTO 24003KT 10SM CLR M27/M29 A3009 RMK T12701290 MADISHFAPN,05:00
KOSH,WINNEBAGO WISCONSIN,KOSH 231800Z AUTO 01006KT 5SM BR BKN013 OVC019 01/M02 A2990 RMK T00101020 MADISHFOSH,18:00
KAUW,MARATHON WISCONSIN,KAUW 101600Z AUTO 06014G19KT 10SM OVC027 01/M06 A3007 RMK T00101060 MADISHFAUW,16:00
KCXY,BERKS PENNSYLVANIA,KCXY 031500Z AUTO 00000KT 10SM SCT050 OVC065 02/M06 A3013 RMK T00201060 MADISHFCXY,15:00
KLPR,SANDUSKY OHIO,KLPR 190900Z AUTO 06013KT 10SM FEW011 OVC030 M02/M06 A3012 RMK T10201060 MADISHFLPR,09:00
KYNG,MAHONING OHIO,KYNG 191100Z AUTO 05006KT 10SM FEW009 OVC028 M03/M05 A3011 RMK T10301050 MADISHFYNG,11:00
KMFD,LUCAS OHIO,KMFD 190800Z AUTO 06009KT 6SM BR OVC022 M02/M04 A3009 RMK T10201040 MADISHFMFD,08:00
KABE,NORTHAMPTON PENNSYLVANIA,KABE 031600Z AUTO 00000KT 10SM SCT070 03/M06 A3012 RMK T00301060 MADISHFABE,16:00
KMGY,MORROW OHIO,KMGY 190800Z AUTO 08008KT 9SM OVC022 02/M02 A3000 RMK T00201020 MADISHFMGY,08:00
KMNN,MARION OHIO,KMNN 190800Z AUTO 08011KT 7SM OVC024 M01/M04 A3010 RMK T10101040 MADISHFMNN,08:00
KHZY,TRUMBULL OHIO,KHZY 191100Z AUTO 07004KT 1SM -SN BR VV014 M04/M05 A3015 RMK T10401050 MADISHFHZY,11:00
KFDY,HANCOCK OHIO,KFDY 190800Z AUTO 06013KT 10SM OVC025 M01/M05 A3012 RMK T10101050 MADISHFFDY,08:00
KMSN,VILAS WISCONSIN,KMSN 110600Z AUTO 08017KT 10SM OVC011 01/M01 A2990 RMK T00101010 CIG 9V15  MADISHFMSN,06:00
KMGW,CUMBERLAND PENNSYLVANIA,KMGW 031500Z AUTO 01005KT 8SM SCT033 OVC041 01/M02 A3004 RMK T00101020 MADISHFMGW,15:00
KCXY,DAUPHIN PENNSYLVANIA,KCXY 031500Z AUTO 00000KT 10SM SCT050 OVC065 02/M06 A3013 RMK T00201060 MADISHFCXY,15:00
KMPO,LEHIGH PENNSYLVANIA,KMPO 031600Z AUTO 00000KT 10SM FEW100 00/M08 A3004 RMK T00001080 MADISHFMPO,16:00
KLNS,LANCASTER PENNSYLVANIA,KLNS 031500Z AUTO 01004KT 10SM BKN055 OVC070 03/M04 A3013 RMK T00301040 MADISHFLNS,15:00
KRDG,SCHUYLKILL PENNSYLVANIA,KRDG 031500Z AUTO 36005KT 10SM OVC079 02/M04 A3013 RMK T00201040 MADISHFRDG,15:00
KTHV,YORK PENNSYLVANIA,KTHV 031500Z AUTO 05002KT 10SM FEW036 BKN044 OVC065 02/M04 A3013 RMK T00201040 MADISHFTHV,15:00
KHZY,ASHTABULA OHIO,KHZY 191200Z AUTO 07006KT 4SM -SN BR BKN038 BKN085 OVC120 M04/M06 A3014 RMK T10401060 MADISHFHZY,12:00
KMNN,WYANDOT OHIO,KMNN 190800Z AUTO 08011KT 7SM OVC024 M01/M04 A3010 RMK T10101040 MADISHFMNN,08:00
KLPR,HURON OHIO,KLPR 190900Z AUTO 06013KT 10SM FEW011 OVC030 M02/M06 A3012 RMK T10201060 MADISHFLPR,09:00
KAZO,OTSEGO MICHIGAN,KAZO 070800Z AUTO 09004KT 4SM -RA BR OVC004 01/00 A2995 RMK T00100000 MADISHFAZO,08:00
KHTL,ROSCOMMON MICHIGAN,KHTL 070800Z AUTO 08008KT 10SM OVC008 M06/M07 A3001 RMK T10601070 MADISHFHTL,08:00
KAPN,ALPENA MICHIGAN,KAPN 070800Z AUTO 00000KT 10SM OVC009 M07/M08 A3010 RMK T10701080 MADISHFAPN,08:00
KBTV,ESSEX VERMONT,KBTV 220200Z AUTO 18004KT 8SM -RA BKN026 OVC049 04/02 A2987 RMK P0000 T00400020 MADISHFBTV,02:00
KAPN,ALPENA MICHIGAN,KAPN 070800Z AUTO 00000KT 10SM OVC009 M07/M08 A3010 RMK T10701080 MADISHFAPN,08:00
KMSN,DOOR WISCONSIN,KMSN 110300Z AUTO 07014KT 10SM -DZ OVC008 01/M01 A2996 RMK T00101010 MADISHFMSN,03:00
KMPV,WASHINGTON VERMONT,KMPV 220100Z AUTO 17008KT 10SM UP FEW009 OVC046 02/01 RMK P0000 T00200010 MADISHFMPV,01:00
KMPV,ORANGE VERMONT,KMPV 220100Z AUTO 17008KT 10SM UP FEW009 OVC046 02/01 RMK P0000 T00200010 MADISHFMPV,01:00
KAZO,OTSEGO MICHIGAN,KAZO 290500Z AUTO 29006KT 1SM -SN BR VV012 M07/M08 A2968 RMK T10701080 MADISHFAZO,05:00
KMBL,MANISTEE MICHIGAN,KMBL 290500Z AUTO 01007KT 9SM -SN OVC036 M14/M17 A2970 RMK T11401170 MADISHFMBL,05:00
KVSF,WINDSOR VERMONT,KVSF 220100Z AUTO 00000KT 8SM FEW046 OVC055 02/02 A2993 RMK T00200020 MADISHFVSF,01:00
KCMX,ONTONAGON MICHIGAN,KCMX 111100Z AUTO 09013KT 10SM M02/M08 A3019 RMK T10201080 MADISHFCMX,11:00
KCMX,KEWEENAW MICHIGAN,KCMX 111700Z AUTO 09014G24KT 10SM OVC009 M02/M06 A3013 RMK T10201060 MADISHFCMX,17:00
KCMX,BARAGA MICHIGAN,KCMX 111500Z AUTO 09015G21KT 10SM OVC013 M02/M06 A3018 RMK T10201060 MADISHFCMX,15:00
KHIB,STEVENS MINNESOTA,KHIB 090800Z AUTO 13005KT 6SM BR SCT015 M07/M09 A2993 RMK T10701090 MADISHFHIB,08:00
KGRB,ONEIDA WISCONSIN,KGRB 110600Z AUTO 04011KT 8SM -SN OVC032 01/M04 A3010 RMK T00101040 MADISHFGRB,06:00
KGCC,WESTON WYOMING,KGCC 130600Z AUTO 36002KT 10SM CLR M02/M03 A2954 RMK T10201030 MADISHFGCC,06:00
KEAU,CHIPPEWA WISCONSIN,KEAU 091700Z AUTO ///19KT 9SM CLR 02/M04 A2971 RMK T00201040 MADISHFEAU,17:00
KMNM,MENOMINEE MICHIGAN,KMNM 110600Z AUTO 07016KT 10SM OVC110 00/M06 A3014 RMK T00001060 MADISHFMNM,06:00
KIMT,FLORENCE WISCONSIN,KIMT 110600Z AUTO 05005KT 10SM CLR M01/M09 RMK T10101090 MADISHFIMT,06:00
KRWF,REDWOOD MINNESOTA,KRWF 090600Z AUTO 13019KT 3SM BR OVC004 M02/M02 A2987 RMK T10201020 MADISHFRWF,06:00
KJLN,FRANKLIN KANSAS,KJLN 112200Z AUTO 12011KT 3SM -RA BR BKN008 BKN019 OVC027 03/02 A3004 RMK T00300020 MADISHFJLN,22:00
KFOE,OSAGE KANSAS,KFOE 112200Z AUTO 09006KT 6SM -RA BR OVC004 02/01 A3004 RMK P0000 T00200010 MADISHFFOE,22:00
KLSE,TREMPEALEAU WISCONSIN,KLSE 101130Z AUTO 09005KT 10SM CLR A3004 RMK MADISHFLSE,11:30
KSET,KANE ILLINOIS,KSET 270900Z AUTO 11004KT 10SM CLR 12/09 A2994 RMK T01200090 MADISHFSET,09:00
KENW,KENOSHA WISCONSIN,KENW 140900Z AUTO 06010KT 10SM FEW120 02/M01 A2993 RMK T00201010 MADISHFENW,09:00
KJLN,FRANKLIN KANSAS,KJLN 062000Z AUTO 02005KT 1/4SM FG VV003 03/02 A2984 RMK T00300020 MADISHFJLN,20:00
KRAC,RACINE WISCONSIN,KRAC 141000Z AUTO 05011KT 10SM CLR 02/M02 A2994 RMK T00201020 MADISHFRAC,10:00
KOFK,MADISON NEBRASKA,KOFK 140400Z AUTO 10008KT 10SM -RA FEW028 OVC047 08/08 A2905 RMK T00800080 MADISHFOFK,04:00
KOFK,PIERCE NEBRASKA,KOFK 140400Z AUTO 10008KT 10SM -RA FEW028 OVC047 08/08 A2905 RMK T00800080 MADISHFOFK,04:00
KEAU,CHIPPEWA WISCONSIN,KEAU 101400Z AUTO 08011KT 10SM OVC019 00/M05 A3009 RMK T00001050 MADISHFEAU,14:00
KEAU,DUNN WISCONSIN,KEAU 101400Z AUTO 08011KT 10SM OVC019 00/M05 A3009 RMK T00001050 MADISHFEAU,14:00
KMSN,PIERCE WISCONSIN,KMSN 101200Z AUTO 07010KT 10SM BKN028 01/M03 A3003 RMK T00101030 MADISHFMSN,12:00
KMKT,NICOLLET MINNESOTA,KMKT 100800Z AUTO 07014KT 10SM OVC085 01/M06 A3001 RMK T00101060 MADISHFMKT,08:00
KFCM,CARVER MINNESOTA,KFCM 101030Z AUTO 07010KT 10SM CLR M01/M07 A3001 RMK T10101070 MADISHFFCM,10:30
KHIB,SCOTT MINNESOTA,KHIB 101030Z AUTO 08005KT 10SM OVC023 M03/M07 A3011 RMK T10301070 MADISHFHIB,10:30
KLSE,DAKOTA MINNESOTA,KLSE 101100Z AUTO 12002KT 10SM CLR A3003 RMK VRB03KT  MADISHFLSE,11:00
KRWF,REDWOOD MINNESOTA,KRWF 100600Z AUTO 07010G15KT 10SM OVC095 02/M04 A3002 RMK T00201040 MADISHFRWF,06:00
KFNB,DAWSON NEBRASKA,KFNB 102100Z AUTO 15013KT 10SM CLR 26/11 A2931 RMK T02600110 MADISHFFNB,21:00
KUGN,MCHENRY ILLINOIS,KUGN 140630Z AUTO /////KT A3000 RMK MADISHFUGN,06:30
KSET,KANE ILLINOIS,KSET 140550Z AUTO 04013KT 5SM RA BR SCT016 BKN024 OVC055 06/04 A2988 RMK P0009 T00600040 MADISHFSET,05:45
KJST,CAMBRIA PENNSYLVANIA,KJST 200600Z AUTO 13004KT 10SM CLR M05/M12 A3038 RMK T10501120 MADISHFJST,06:00
KAOO,BEDFORD PENNSYLVANIA,KAOO 200600Z AUTO 00000KT 10SM CLR M04/M11 A3047 RMK T10401110 MADISHFAOO,06:00
KAGC,FULTON PENNSYLVANIA,KAGC 200600Z AUTO 06003KT 10SM CLR M03/M10 A3039 RMK T10301100 MADISHFAGC,06:00
KFFT,BALLARD KENTUCKY,KFFT 151600Z AUTO 29006KT 10SM CLR 06/00 A2984 RMK T00600000 MADISHFFFT,16:00
KALO,BUTLER IOWA,KALO 192200Z AUTO 09008KT 10SM FEW110 M08/M12 A3038 RMK T10801120 MADISHFALO,22:00
KMIW,GRUNDY IOWA,KMIW 111600Z AUTO ///17KT 5SM BR OVC008 M04/M05 A3004 RMK T10401050 MADISHFMIW,16:00
KMSN,PIERCE WISCONSIN,KMSN 112300Z AUTO 09013KT 5SM BR OVC009 M03/M04 A3007 RMK T10301040 MADISHFMSN,23:00
KAOO,HUNTINGDON PENNSYLVANIA,KAOO 200600Z AUTO 00000KT 10SM CLR M04/M11 A3047 RMK T10401110 MADISHFAOO,06:00
KMGW,CUMBERLAND PENNSYLVANIA,KMGW 200700Z AUTO 33003KT 10SM OVC090 M01/M08 A3037 RMK T10101080 MADISHFMGW,07:00
KLEX,CARLISLE KENTUCKY,KLEX 151700Z AUTO 27011KT 10SM CLR 07/M01 A2985 RMK T00701010 MADISHFLEX,17:00
KALO,BREMER IOWA,KALO 192200Z AUTO 09008KT 10SM FEW110 M08/M12 A3038 RMK T10801120 MADISHFALO,22:00
KCHO,WARREN VIRGINIA,KCHO 102100Z AUTO 17006KT 10SM OVC090 04/M11 A3045 RMK T00401110 MADISHFCHO,21:00
KTHV,YORK PENNSYLVANIA,KTHV 200700Z AUTO 00000KT 10SM CLR M02/M08 A3057 RMK T10201080 MADISHFTHV,07:00
KDYR,HICKMAN KENTUCKY,KDYR 151700Z AUTO 03010KT 10SM -RA FEW050 SCT085 04/M01 A2996 RMK T00401010 MADISHFDYR,17:00
KPAH,FULTON KENTUCKY,KPAH 151800Z AUTO 36008KT 10SM UP OVC070 02/M04 A2998 RMK P0000 T00201040 MADISHFPAH,18:00
KALO,BUTLER IOWA,KALO 111800Z AUTO 10016KT 3SM BR OVC007 M02/M04 A3004 RMK T10201040 MADISHFALO,18:00
KALO,BREMER IOWA,KALO 111800Z AUTO 10016KT 3SM BR OVC007 M02/M04 A3004 RMK T10201040 MADISHFALO,18:00
KLYH,AMHERST VIRGINIA,KLYH 200130Z AUTO 11005KT 10SM SCT120 04/M03 A3054 RMK T00401030 MADISHFLYH,01:30
KJST,SOMERSET PENNSYLVANIA,KJST 200600Z AUTO 13004KT 10SM CLR M05/M12 A3038 RMK T10501120 MADISHFJST,06:00
KMKT,NICOLLET MINNESOTA,KMKT 200100Z AUTO 14007KT 10SM SCT090 OVC110 M11/M14 A3038 RMK T11101140 MADISHFMKT,01:00
KIOW,BUCHANAN IOWA,KIOW 111600Z AUTO 11014KT 6SM HZ OVC009 M02/M05 A3010 RMK T10201050 MADISHFIOW,16:00
KLSE,HOUSTON MINNESOTA,KLSE 111900Z AUTO 07010KT 10SM OVC016 M03/M07 A3012 RMK T10301070 MADISHFLSE,19:00
KRWF,REDWOOD MINNESOTA,KRWF 200100Z AUTO 14010KT 10SM BKN075 OVC090 M13/M16 A3036 RMK T11301160 MADISHFRWF,01:00
KDBQ,DUBUQUE IOWA,KDBQ 111700Z AUTO 07014G20KT 4SM BR OVC004 M03/M04 A3009 RMK T10301040 MADISHFDBQ,17:00
KMSN,VILAS WISCONSIN,KMSN 070200Z AUTO 05010KT 6SM -FZDZ BR OVC008 M03/M04 A2998 RMK T10301040 MADISHFMSN,02:00
KGRB,ONEIDA WISCONSIN,KGRB 070200Z AUTO 04005KT 10SM OVC013 M05/M08 A3006 RMK T10501080 MADISHFGRB,02:00
KIMT,FLORENCE WISCONSIN,KIMT 070200Z AUTO 07003KT 10SM BKN013 OVC024 M06/M09 RMK T10601090 VRB03KT  MADISHFIMT,02:00
KCXY,DAUPHIN PENNSYLVANIA,KCXY 200800Z AUTO 14003KT 10SM CLR M01/M12 A3057 RMK T10101120 MADISHFCXY,08:00
KSEG,NORTHUMBERLAND PENNSYLVANIA,KSEG 200800Z AUTO 00000KT 10SM CLR M03/M08 A3056 RMK T10301080 MADISHFSEG,08:00
KVSF,WINDSOR VERMONT,KVSF 121700Z AUTO 00000KT 10SM OVC090 M09/M19 A3039 RMK T10901190 MADISHFVSF,17:00
KMIW,GRUNDY IOWA,KMIW 162300Z AUTO 08011KT 10SM CLR M07/M11 A2993 RMK T10701110 MADISHFMIW,23:00
KHIB,SCOTT MINNESOTA,KHIB 200200Z AUTO 20005KT 10SM CLR M11/M18 A3027 RMK T11101180 MADISHFHIB,02:00
KFOD,JONES IOWA,KFOD 111600Z AUTO 09012KT 6SM BR OVC011 M04/M06 A3003 RMK T10401060 MADISHFFOD,16:00
KSUE,LINCOLN WISCONSIN,KSUE 070200Z AUTO 01008KT 10SM OVC012 M08/M09 A3006 RMK T10801090 MADISHFSUE,02:00
KCXY,BERKS PENNSYLVANIA,KCXY 111900Z AUTO 11004KT 3SM HZ BKN014 BKN018 OVC026 01/M02 A3025 RMK T00101020 MADISHFCXY,19:00
KLNS,COLUMBIA PENNSYLVANIA,KLNS 200800Z AUTO 08003KT 10SM CLR M01/M06 A3057 RMK T10101060 MADISHFLNS,08:00
KALO,BUTLER IOWA,KALO 162300Z AUTO 07011KT 10SM CLR M06/M11 A2998 RMK T10601110 MADISHFALO,23:00
KLSE,TREMPEALEAU WISCONSIN,KLSE 061820Z AUTO 36007KT 10SM OVC012 M03/M06 A2998 RMK T10301060 MADISHFLSE,18:20
KCWI,CLINTON IOWA,KCWI 111700Z AUTO 10015KT 7SM OVC008 M01/M03 A3009 RMK T10101030 MADISHFCWI,17:00
KHTL,ALGER MICHIGAN,KHTL 240100Z AUTO ///12G18KT 2SM -FZRA BR OVC007 M01/M02 A2979 RMK P0000 T10101020 CIG 5V11  MADISHFHTL,01:00
KAUW,MARATHON WISCONSIN,KAUW 070200Z AUTO 08007KT 10SM OVC011 M05/M07 A3000 RMK T10501070 MADISHFAUW,02:00
KMTW,KEWAUNEE WISCONSIN,KMTW 070200Z AUTO 35008KT 10SM OVC011 M06/M08 A3006 RMK T10601080 MADISHFMTW,02:00
KMPO,LEHIGH PENNSYLVANIA,KMPO 112100Z AUTO 10004KT 10SM BKN028 OVC037 M02/M08 A3019 RMK T10201080 MADISHFMPO,21:00
KCMX,KEWEENAW MICHIGAN,KCMX 040400Z AUTO 03011G16KT 10SM OVC004 M08/M10 A2982 RMK T10801100 MADISHFCMX,04:00
KCMX,KEWEENAW MICHIGAN,KCMX 240200Z AUTO 10009KT 4SM BR OVC002 M02/M04 A2970 RMK T10201040 MADISHFCMX,02:00
KOSH,WINNEBAGO WISCONSIN,KOSH 070200Z AUTO 05011KT 10SM SCT007 OVC014 M06/M08 A3004 RMK T10601080 MADISHFOSH,02:00
KMTW,MANITOWOC WISCONSIN,KMTW 070200Z AUTO 35008KT 10SM OVC011 M06/M08 A3006 RMK T10601080 MADISHFMTW,02:00
KJST,CAMBRIA PENNSYLVANIA,KJST 111500Z AUTO 00000KT 2SM -SN BR OVC004 00/M01 A3012 RMK T00001010 MADISHFJST,15:00
KJST,SOMERSET PENNSYLVANIA,KJST 111500Z AUTO 00000KT 2SM -SN BR OVC004 00/M01 A3012 RMK T00001010 MADISHFJST,15:00
KAMW,STORY IOWA,KAMW 162200Z AUTO 07007KT 10SM CLR M07/M12 A2995 RMK T10701120 MADISHFAMW,22:00
KMIW,MARSHALL IOWA,KMIW 162200Z AUTO 06012KT 10SM CLR M07/M11 A2995 RMK T10701110 MADISHFMIW,22:00
KCNK,RICE KANSAS,KCNK 190910Z AUTO 00000KT 7SM OVC110 M12/M13 A3045 RMK T11201130 MADISHFCNK,09:05
KHUT,MCPHERSON KANSAS,KHUT 190940Z AUTO 07008KT 9SM FEW120 M06/M08 A3037 RMK T10601080 MADISHFHUT,09:40
KTXK,DODDRIDGE WEST VIRGINIA,KTXK 010300Z AUTO 15006KT 10SM BKN050 OVC090 11/06 A3012 RMK T01100060 MADISHFTXK,03:00
KAOO,BEDFORD PENNSYLVANIA,KAOO 111500Z AUTO 00000KT 2SM -SN BR SCT018 OVC031 M02/M03 A3020 RMK T10201030 MADISHFAOO,15:00
KLNR,RICHLAND WISCONSIN,KLNR 111800Z AUTO 07017KT 10SM OVC015 M03/M06 A3013 RMK T10301060 MADISHFLNR,18:00
KLNS,LANCASTER PENNSYLVANIA,KLNS 111600Z AUTO 00000KT 1 1/2SM -SN BR OVC033 M01/M02 A3028 RMK T10101020 MADISHFLNS,16:00
KMIW,UNION IOWA,KMIW 162000Z AUTO 07008KT 10SM CLR M08/M12 A3001 RMK T10801120 MADISHFMIW,20:00
KLSE,TREMPEALEAU WISCONSIN,KLSE 112000Z AUTO 08007KT 10SM OVC018 M03/M07 A3011 RMK T10301070 MADISHFLSE,20:00
KMGW,CUMBERLAND PENNSYLVANIA,KMGW 111600Z AUTO 00000KT 7SM -RA FEW004 OVC016 04/03 A3017 RMK T00400030 MADISHFMGW,16:00
KCXY,DAUPHIN PENNSYLVANIA,KCXY 111600Z AUTO 09004KT 1SM -SN BR BKN009 OVC030 M01/M03 A3028 RMK T10101030 MADISHFCXY,16:00
KMNM,MENOMINEE MICHIGAN,KMNM 051400Z AUTO 35010KT 10SM OVC021 M11/M15 A3021 RMK T11101150 MADISHFMNM,14:00
KMSN,PIERCE WISCONSIN,KMSN 200200Z AUTO 00000KT 10SM CLR M07/M11 A3039 RMK T10701110 MADISHFMSN,02:00
KMTV,CRAIG VIRGINIA,KMTV 191010Z AUTO 35005KT 10SM CLR 00/M05 A3052 RMK AO2 T10051051MTV,10:10
KROA,ROANOKE VIRGINIA,KROA 191020Z AUTO 36003KT 10SM BKN039 00/M07 A3052 RMK T00001070 MADISHFROA,10:20
KLYH,BEDFORD VIRGINIA,KLYH 191050Z AUTO 00000KT 10SM CLR M02/M05 A3051 RMK T10201050 MADISHFLYH,10:45
KROA,BOTETOURT VIRGINIA,KROA 191050Z AUTO 00000KT 10SM OVC039 01/M07 A3052 RMK T00101070 MADISHFROA,10:50
KTHV,YORK PENNSYLVANIA,KTHV 111600Z AUTO 06003KT 1SM -SN BR SCT006 BKN019 OVC031 M01/M02 A3027 RMK T10101020 MADISHFTHV,16:00
KEST,EMMET IOWA,KEST 192200Z AUTO 10005KT 8SM SCT120 M12/M14 A3034 RMK T11201140 MADISHFEST,22:00
KCID,MARION IOWA,KCID 111500Z AUTO 09015KT 4SM BR OVC009 M04/M05 A3007 RMK T10401050 MADISHFCID,15:00
KDDH,BENNINGTON VERMONT,KDDH 121000Z AUTO 00000KT 10SM CLR M11/M16 A3038 RMK T11101160 MADISHFDDH,10:00
KCMX,ONTONAGON MICHIGAN,KCMX 071200Z AUTO 07008KT 6SM -SN FEW024 OVC065 M07/M09 A3000 RMK T10701090 MADISHFCMX,12:00
KCMX,KEWEENAW MICHIGAN,KCMX 070500Z AUTO 02006KT 10SM OVC012 M08/M11 A3006 RMK T10801110 MADISHFCMX,05:00
KFCM,CARVER MINNESOTA,KFCM 200200Z AUTO 14003KT 10SM CLR M10/M16 A3036 RMK T11001160 MADISHFFCM,02:00
KEAU,CHIPPEWA WISCONSIN,KEAU 200400Z AUTO 05003KT 9SM CLR M13/M16 A3032 RMK T11301160 MADISHFEAU,04:00
KLSE,HOUSTON MINNESOTA,KLSE 232100Z AUTO 05005KT 2SM BR OVC007 02/00 A2976 RMK T00200000 MADISHFLSE,21:00
KBRL,KOSSUTH IOWA,KBRL 192200Z AUTO 08009KT 10SM OVC090 M01/M07 A3038 RMK T10101070 MADISHFBRL,22:00
KRFD,WINNEBAGO ILLINOIS,KRFD 051700Z AUTO 10012KT 10SM OVC016 M03/M07 A3017 RMK T10301070 MADISHFRFD,17:00
KLSE,DAKOTA MINNESOTA,KLSE 200200Z AUTO 32003KT 10SM BKN120 M12/M16 A3039 RMK T11201160 MADISHFLSE,02:00
KPHF,CARROLL VIRGINIA,KPHF 192050Z AUTO 05009KT 10SM CLR 03/M05 A3056 RMK T00301050 MADISHFPHF,20:50
KBLF,BLAND VIRGINIA,KBLF 192120Z AUTO 08006KT 10SM CLR 03/M06 A3039 RMK T00301060 MADISHFBLF,21:15
KAOO,HUNTINGDON PENNSYLVANIA,KAOO 111600Z AUTO 00000KT 5SM BR FEW019 OVC043 M01/M03 A3019 RMK T10101030 MADISHFAOO,16:00
KEAU,DUNN WISCONSIN,KEAU 112300Z AUTO 08010KT 10SM OVC016 M05/M08 A3012 RMK T10501080 MADISHFEAU,23:00
KEAU,RUSK WISCONSIN,KEAU 200430Z AUTO 02003KT 9SM CLR M13/M16 A3031 RMK T11301160 MADISHFEAU,04:30
KLNS,LANCASTER PENNSYLVANIA,KLNS 200800Z AUTO 08003KT 10SM CLR M01/M06 A3057 RMK T10101060 MADISHFLNS,08:00
KRDG,SCHUYLKILL PENNSYLVANIA,KRDG 200800Z AUTO 00000KT 10SM CLR M02/M07 A3057 RMK T10201070 MADISHFRDG,08:00
KLWV,JACKSON ILLINOIS,KLWV 151600Z AUTO 33012KT 10SM CLR M03/M09 A3000 RMK T10301090 MADISHFLWV,16:00
KAMW,STORY IOWA,KAMW 111500Z AUTO /////KT 4SM BR OVC009 M04/M06 A3004 RMK T10401060 MADISHFAMW,15:00
KMIW,MARSHALL IOWA,KMIW 111500Z AUTO 10014KT 4SM BR OVC008 M04/M06 A3005 RMK T10401060 MADISHFMIW,15:00
KBWI,CARROLL MARYLAND,KBWI 102100Z AUTO 07009KT 10SM OVC110 02/M08 A3048 RMK T00201080 MADISHFBWI,21:00
KEAU,CHIPPEWA WISCONSIN,KEAU 120100Z AUTO 07009KT 10SM OVC016 M05/M08 A3009 RMK T10501080 MADISHFEAU,01:00
KVSF,WINDSOR VERMONT,KVSF 011600Z AUTO 06004KT 10SM CLR M07/M12 A2998 RMK T10701120 MADISHFVSF,16:00
KCWI,LYON IOWA,KCWI 261600Z AUTO 09014KT 10SM CLR 05/01 A2981 RMK T00500010 MADISHFCWI,16:00
KSUX,DIXON NEBRASKA,KSUX 261430Z AUTO 06011G17KT 10SM BKN019 BKN095 01/M02 A2976 RMK T00101020 MADISHFSUX,14:30
KEST,EMMET IOWA,KEST 261800Z AUTO 05013KT 10SM OVC016 01/M03 A2978 RMK T00101030 MADISHFEST,18:00
KMML,NORMAN MINNESOTA,KMML 101800Z AUTO 34015KT 4SM -RA BR BKN004 OVC013 04/04 A2979 RMK T00400040 CIG 3V8  MADISHFMML,18:00
KBTL,BEADLE SOUTH DAKOTA,KBTL 282100Z AUTO 31004G16KT 10SM OVC019 02/M02 A3042 RMK T00201020 MADISHFBTL,21:00
KHTL,ALGER MICHIGAN,KHTL 120800Z AUTO 19005KT 10SM SCT100 BKN120 M12/M14 A3045 RMK T11201140 MADISHFHTL,08:00
KLWD,SALINE MISSOURI,KLWD 150900Z AUTO 02005KT 10SM CLR M10/M12 A3003 RMK T11001120 MADISHFLWD,09:00
KMKC,RANDOLPH MISSOURI,KMKC 150900Z AUTO 08005KT 10SM BKN085 OVC110 M04/M09 A3002 RMK T10401090 MADISHFMKC,09:00
KMNM,MENOMINEE MICHIGAN,KMNM 120600Z AUTO 28002KT 10SM OVC110 M17/M21 A3047 RMK T11701210 MADISHFMNM,06:00
KPOF,BUCHANAN MISSOURI,KPOF 150700Z AUTO 03007KT 10SM OVC016 02/M02 A3004 RMK T00201020 MADISHFPOF,07:00
KIRK,CLAY MISSOURI,KIRK 150700Z AUTO 00000KT 10SM SCT120 M07/M09 A3004 RMK T10701090 MADISHFIRK,07:00
KCGI,JACKSON MISSOURI,KCGI 150700Z AUTO 35002KT 7SM OVC018 01/M03 A3004 RMK T00101030 MADISHFCGI,07:00
KMML,COTTONWOOD MINNESOTA,KMML 090700Z AUTO 14015KT 4SM BR OVC004 M01/M02 A2982 RMK T10101020 MADISHFMML,07:00
KSTJ,ATCHISON KANSAS,KSTJ 150700Z AUTO 05005KT 10SM BKN070 OVC079 M05/M11 A3004 RMK T10501110 MADISHFSTJ,07:00
KMCI,LEAVENWORTH KANSAS,KMCI 150700Z AUTO 04004KT 10SM BKN085 OVC100 M04/M09 A3002 RMK T10401090 MADISHFMCI,07:00
KHSI,BLAINE NEBRASKA,KHSI 271800Z AUTO 00000KT 10SM CLR 02/M01 A3017 RMK T00201010 MADISHFHSI,18:00
KEAR,KEARNEY NEBRASKA,KEAR 260800Z AUTO 03011KT 10SM BKN070 M02/M04 A2971 RMK T10201040 MADISHFEAR,08:00
KHSI,CLAY NEBRASKA,KHSI 260900Z AUTO 07007KT 10SM FEW070 A2972 RMK T1010 MADISHFHSI,09:00
KARR,MONTGOMERY ILLINOIS,KARR 151030Z AUTO 29008KT 8SM OVC015 M07/M11 A3002 RMK T10701110 MADISHFARR,10:30
KMSN,VILAS WISCONSIN,KMSN 010100Z AUTO 11013KT 2 1/2SM -RA BR OVC007 02/02 A2947 RMK T00200020  OCNL LTGIC OHD TS OHD MOV NE MADISHFMSN,01:00
KAZO,OTSEGO MICHIGAN,KAZO 010100Z AUTO 10011G19KT 10SM OVC016 03/M01 A2969 RMK T00301010 MADISHFAZO,01:00
KFNB,DAWSON NEBRASKA,KFNB 260800Z AUTO 36004KT 10SM CLR 02/M02 A2971 RMK T00201020 MADISHFFNB,08:00
KODX,GREELEY NEBRASKA,KODX 260900Z AUTO 04004KT 10SM FEW110 M01/M04 A2973 RMK T10101040 MADISHFODX,09:00
KOFK,PIERCE NEBRASKA,KOFK 282030Z AUTO 02007KT 2SM BR OVC003 02/01 A2967 RMK T00200010 MADISHFOFK,20:30
KMNM,MENOMINEE MICHIGAN,KMNM 010100Z AUTO ///20KT 8SM -SN OVC009 01/M01 A2975 RMK T00101010 CIG 7V13  MADISHFMNM,01:00
KHTL,ALGER MICHIGAN,KHTL 010100Z AUTO 09014KT 10SM OVC065 M01/M04 A2982 RMK T10101040 MADISHFHTL,01:00
KMBL,MANISTEE MICHIGAN,KMBL 010100Z AUTO 10011G17KT 10SM -RA OVC048 01/M02 A2973 RMK T00101020 MADISHFMBL,01:00
KGRI,HOWARD NEBRASKA,KGRI 260900Z AUTO 05007KT 10SM FEW075 M03/M05 A2975 RMK T10301050 MADISHFGRI,09:00
KPKD,HUBBARD MINNESOTA,KPKD 082100Z AUTO 02009KT 10SM OVC011 M05/M08 A2979 RMK T10501080 MADISHFPKD,21:00
KHIB,STEVENS MINNESOTA,KHIB 280500Z AUTO 20005KT 4SM BR OVC004 M08/M09 A3009 RMK T10801090 VRB05KT  MADISHFHIB,05:00
KHUT,MCPHERSON KANSAS,KHUT 150300Z AUTO 00000KT 10SM CLR M01/M06 A2993 RMK T10101060 MADISHFHUT,03:00
KHTL,ROSCOMMON MICHIGAN,KHTL 010100Z AUTO 09014KT 10SM OVC065 M01/M04 A2982 RMK T10101040 MADISHFHTL,01:00
KHTL,GLADWIN MICHIGAN,KHTL 010100Z AUTO 09014KT 10SM OVC065 M01/M04 A2982 RMK T10101040 MADISHFHTL,01:00
KCMI,BOND ILLINOIS,KCMI 151200Z AUTO 27004KT 10SM CLR M09/M10 A3009 RMK T10901100 MADISHFCMI,12:00
KEAU,RUSK WISCONSIN,KEAU 300100Z AUTO 25004KT 10SM OVC025 04/01 A2945 RMK T00400010 MADISHFEAU,01:00
KEAU,CHIPPEWA WISCONSIN,KEAU 300100Z AUTO 25004KT 10SM OVC025 04/01 A2945 RMK T00400010 MADISHFEAU,01:00
KCMX,ONTONAGON MICHIGAN,KCMX 090700Z AUTO 06011KT 10SM OVC012 M07/M11 A2982 RMK T10701110 MADISHFCMX,07:00
KDKK,CATTARAUGUS NEW YORK,KDKK 141500Z AUTO 01007KT 4SM -RA BR OVC003 04/03 A2946 RMK P0000 T00400030 MADISHFDKK,15:00
KODX,GREELEY NEBRASKA,KODX 282100Z AUTO 35007KT 10SM OVC007 01/00 A2964 RMK T00100000 MADISHFODX,21:00
KMKT,TRAVERSE MINNESOTA,KMKT 280600Z AUTO 12005KT 10SM CLR M04/M05 A3012 RMK T10401050 MADISHFMKT,06:00
KGRI,HOWARD NEBRASKA,KGRI 282100Z AUTO 01007KT 4SM BR OVC002 03/02 A2963 RMK T00300020 MADISHFGRI,21:00
KFNB,DAWSON NEBRASKA,KFNB 282100Z AUTO /////KT A2959 RMK P0000 MADISHFFNB,21:00
KEAR,KEARNEY NEBRASKA,KEAR 282100Z AUTO 36013KT 7SM -RA OVC002 02/01 A2962 RMK T00200010 MADISHFEAR,21:00
KIRK,CRAWFORD MISSOURI,KIRK 151100Z AUTO /////KT 10SM CLR M08/M11 A3004 RMK T10801110 MADISHFIRK,11:00
KMSN,PIERCE WISCONSIN,KMSN 300800Z AUTO 25004KT 10SM -RA FEW012 SCT018 OVC039 03/02 A2937 RMK T00300020 MADISHFMSN,08:00
KMNM,MENOMINEE MICHIGAN,KMNM 300600Z AUTO 06011KT 1/2SM -RA FG OVC003 03/03 A2945 RMK T00300030 MADISHFMNM,06:00
KHUT,MCPHERSON SOUTH DAKOTA,KHUT 280300Z AUTO 12010KT 1SM BR VV002 04/04 A2993 RMK T00400040 MADISHFHUT,03:00
KBTL,BEADLE SOUTH DAKOTA,KBTL 010100Z AUTO 11016G21KT 10SM FEW019 OVC026 02/M01 A2971 RMK T00201010 MADISHFBTL,01:00
KODX,LOUP NEBRASKA,KODX 271800Z AUTO 20008KT 10SM CLR 03/M02 A3012 RMK T00301020 MADISHFODX,18:00
KMML,NORMAN MINNESOTA,KMML 010100Z AUTO 05019KT 2 1/2SM -SN BR OVC004 00/M01 A2942 RMK T00001010 MADISHFMML,01:00
KMKT,TRAVERSE MINNESOTA,KMKT 010100Z AUTO 07013KT 4SM -SN BR OVC007 01/01 A2940 RMK T00100010 MADISHFMKT,01:00
KDDH,BENNINGTON VERMONT,KDDH 291600Z AUTO 00000KT 10SM CLR 02/M03 A3020 RMK T00201030 MADISHFDDH,16:00
KMSN,DOOR WISCONSIN,KMSN 010100Z AUTO 11013KT 2 1/2SM -RA BR OVC007 02/02 A2947 RMK T00200020  OCNL LTGIC OHD TS OHD MOV NE MADISHFMSN,01:00
KMML,NORMAN MINNESOTA,KMML 280600Z AUTO 14007KT 10SM BKN085 OVC100 M01/M03 A3006 RMK T10101030 MADISHFMML,06:00
KIMT,FLORENCE WISCONSIN,KIMT 010100Z AUTO 08007KT 7SM UP OVC012 M02/M05 A2975 RMK P0000 T10201050 WND 05V12  MADISHFIMT,01:00
KLBF,LOGAN NEBRASKA,KLBF 271800Z AUTO 00000KT 10SM OVC079 01/M02 RMK T00101020 MADISHFLBF,18:00
KMTW,KEWAUNEE WISCONSIN,KMTW 010100Z AUTO 10022KT 10SM -RA OVC009 01/00 A2963 RMK T00100000 CIG 7V12  MADISHFMTW,01:00
KPKD,HUBBARD MINNESOTA,KPKD 010100Z AUTO 05011G21KT 3SM -SN BR SCT014 BKN025 OVC085 M03/M05 A2965 RMK T10301050 WND 02V08  MADISHFPKD,01:00
KLNK,LINCOLN NEBRASKA,KLNK 271800Z AUTO 20009KT 10SM CLR 03/M02 A3025 RMK T00301020 MADISHFLNK,18:00
KSUE,LINCOLN WISCONSIN,KSUE 010100Z AUTO 09014KT 1SM -SN BR SCT016 OVC038 00/M01 A2971 RMK P0000 T00001010 MADISHFSUE,01:00
KMTW,MANITOWOC WISCONSIN,KMTW 010100Z AUTO 10022KT 10SM -RA OVC009 01/00 A2963 RMK T00100000 CIG 7V12  MADISHFMTW,01:00
KHLC,PHILLIPS KANSAS,KHLC 260800Z AUTO 06014G19KT 10SM CLR 01/M03 RMK T00101030 MADISHFHLC,08:00
KAUW,MARATHON WISCONSIN,KAUW 010100Z AUTO 10013G20KT 6SM -FZRA BR OVC011 M01/M02 A2956 RMK T10101020 MADISHFAUW,01:00
KMML,NORMAN MINNESOTA,KMML 081850Z AUTO 36010KT 5SM BR OVC004 M02/M03 A2979 RMK T10201030 MADISHFMML,18:52
KPKD,HUBBARD MINNESOTA,KPKD 280600Z AUTO 16007KT 1/2SM FZFG VV002 M08/M10 A3004 RMK T10801100 MADISHFPKD,06:00
KCXY,BERKS PENNSYLVANIA,KCXY 161700Z AUTO 00000KT 8SM BKN019 OVC032 02/M03 A3022 RMK T00201030 MADISHFCXY,17:00
KMPO,LEHIGH PENNSYLVANIA,KMPO 161800Z AUTO 11002KT 10SM SCT016 OVC041 M03/M06 A3013 RMK T10301060 MADISHFMPO,18:00
KGRB,ONEIDA WISCONSIN,KGRB 010100Z AUTO 09013G19KT 4SM RA BR BKN014 OVC021 01/M01 A2965 RMK P0000 T00101010 MADISHFGRB,01:00
KHUT,MCPHERSON SOUTH DAKOTA,KHUT 010100Z AUTO 29019G27KT 10SM CLR 03/M06 A2965 RMK T00301060 MADISHFHUT,01:00
KCMX,ONTONAGON MICHIGAN,KCMX 010100Z AUTO 09016KT 10SM BKN019 OVC025 M02/M06 A2984 RMK T10201060 MADISHFCMX,01:00
KEAU,RUSK WISCONSIN,KEAU 300100Z AUTO 09007KT 10SM OVC028 00/M03 A3020 RMK T00001030 MADISHFEAU,01:00
KMML,NORMAN MINNESOTA,KMML 300100Z AUTO 11011KT 4SM -SN BR OVC004 M01/M02 A3005 RMK T10101020 MADISHFMML,01:00
KHTL,ALGER MICHIGAN,KHTL 070100Z AUTO 29004KT 2SM -SN BR BKN008 BKN023 OVC027 M02/M03 A3023 RMK T10201030 MADISHFHTL,01:00
KHIB,SCOTT MINNESOTA,KHIB 261900Z AUTO 06005KT 10SM FEW018 OVC030 M01/M05 A2989 RMK T10101050 MADISHFHIB,19:00
KMKT,TRAVERSE MINNESOTA,KMKT 292200Z AUTO 11008KT 6SM UP BR OVC009 M01/M01 A3019 RMK P0000 T10101010 CIG 7V12  MADISHFMKT,22:00
KPKD,HUBBARD MINNESOTA,KPKD 300100Z AUTO 11008KT 10SM OVC011 M02/M04 A3012 RMK T10201040 MADISHFPKD,01:00
KCMX,ONTONAGON MICHIGAN,KCMX 270100Z AUTO 06005KT 10SM BKN009 OVC032 M01/M03 A2992 RMK T10101030 MADISHFCMX,01:00
KCMX,BARAGA MICHIGAN,KCMX 270100Z AUTO 06005KT 10SM BKN009 OVC032 M01/M03 A2992 RMK T10101030 MADISHFCMX,01:00
KBTV,ESSEX VERMONT,KBTV 111800Z AUTO 33009KT 6SM -SN SCT039 BKN048 OVC055 M02/M06 A3020 RMK T10201060 MADISHFBTV,18:00
KHTL,ALGER MICHIGAN,KHTL 270300Z AUTO 08009KT 10SM OVC032 02/M01 A2980 RMK T00201010 MADISHFHTL,03:00
KOMA,GARDEN NEBRASKA,KOMA 252000Z AUTO 32011KT 10SM 12/M01 A2968 RMK T01201010 MADISHFOMA,20:00
KMSN,PIERCE WISCONSIN,KMSN 262000Z AUTO 08010KT 10SM BKN026 BKN090 BKN110 06/00 A2977 RMK T00600000 MADISHFMSN,20:00
KFCM,CARVER MINNESOTA,KFCM 261900Z AUTO 07008KT 10SM BKN075 OVC090 02/M05 A2984 RMK T00201050 MADISHFFCM,19:00
KEAU,RUSK WISCONSIN,KEAU 262200Z AUTO 04014G20KT 10SM SCT110 03/M03 A2973 RMK T00301030 MADISHFEAU,22:00
KIML,CHASE NEBRASKA,KIML 252000Z AUTO 02009G15KT 10SM CLR 09/M09 A2970 RMK T00901090 MADISHFIML,20:00
KMCK,HAYES NEBRASKA,KMCK 260100Z AUTO 08005KT 10SM CLR 05/M06 A2970 RMK T00501060 MADISHFMCK,01:00
KOFK,MADISON NEBRASKA,KOFK 261300Z AUTO 03010KT 10SM OVC024 01/M02 A2970 RMK T00101020 MADISHFOFK,13:00
KOFK,PIERCE NEBRASKA,KOFK 261300Z AUTO 03010KT 10SM OVC024 01/M02 A2970 RMK T00101020 MADISHFOFK,13:00
KLSE,DAKOTA MINNESOTA,KLSE 261900Z AUTO 02009KT 10SM FEW027 06/M02 A2979 RMK T00601020 MADISHFLSE,19:00
KLBF,LOGAN NEBRASKA,KLBF 260100Z AUTO 07009KT 10SM OVC075 06/M07 RMK T00601070 MADISHFLBF,01:00
KOLU,PLATTE NEBRASKA,KOLU 261000Z AUTO 04005KT 10SM BKN120 M02/M03 A2977 RMK T10201030 MADISHFOLU,10:00
KOFK,STANTON NEBRASKA,KOFK 261300Z AUTO 03010KT 10SM OVC024 01/M02 A2970 RMK T00101020 MADISHFOFK,13:00
KHSI,BLAINE NEBRASKA,KHSI 260100Z AUTO 05005KT 10SM CLR 04/M04 A2976 RMK T00401040 MADISHFHSI,01:00
KTOR,MORRILL NEBRASKA,KTOR 300100Z AUTO 11014KT 3SM BR OVC004 M01/M02 A2950 RMK T10101020 MADISHFTOR,01:00
KMSN,VILAS WISCONSIN,KMSN 262200Z AUTO 08011KT 10SM OVC075 05/00 A2971 RMK T00500000 MADISHFMSN,22:00
KHUT,MCPHERSON SOUTH DAKOTA,KHUT 292100Z AUTO 14011G20KT 8SM OVC004 06/05 A2987 RMK T00600050 MADISHFHUT,21:00
KGRB,ONEIDA WISCONSIN,KGRB 262200Z AUTO 05011KT 10SM OVC029 04/00 A2985 RMK T00400000 MADISHFGRB,22:00
KIMT,FLORENCE WISCONSIN,KIMT 262200Z AUTO 04002KT 10SM OVC024 02/M04 A2987 RMK T00201040 MADISHFIMT,22:00
KDKK,CATTARAUGUS NEW YORK,KDKK 111200Z AUTO 05010KT 10SM OVC014 01/M01 A3012 RMK T00101010 MADISHFDKK,12:00
KHTL,ALGER MICHIGAN,KHTL 102000Z AUTO 36007KT 10SM OVC038 01/M07 A3000 RMK T00101070 MADISHFHTL,20:00
KSUE,LINCOLN WISCONSIN,KSUE 262200Z AUTO 06005KT 10SM OVC028 04/01 A2987 RMK T00400010 MADISHFSUE,22:00
KAUW,MARATHON WISCONSIN,KAUW 262200Z AUTO 06005KT 10SM FEW029 OVC090 03/M03 A2978 RMK T00301030 MADISHFAUW,22:00
KMLT,LINCOLN MAINE,KMLT 300300Z AUTO 01007KT 10SM OVC038 M03/M11 A3020 RMK T10301110 MADISHFMLT,03:00
KBHB,KENNEBEC MAINE,KBHB 301100Z AUTO 02009KT 10SM CLR M04/M09 A3022 RMK T10401090 MADISHFBHB,11:00
KCPS,MADISON ILLINOIS,KCPS 151000Z AUTO 05005KT 10SM OVC120 M03/M07 A3006 RMK T10301070 MADISHFCPS,10:00
KCOU,CALLAWAY MISSOURI,KCOU 150830Z AUTO 02002KT 10SM OVC100 M03/M07 A3004 RMK T10301070 MADISHFCOU,08:30
KDMO,LINCOLN MISSOURI,KDMO 150900Z AUTO 09004KT 10SM OVC100 M03/M07 A3003 RMK T10301070 MADISHFDMO,09:00
KSET,JERSEY ILLINOIS,KSET 150900Z AUTO /////KT A3009 RMK MADISHFSET,09:00
KZZV,LICKING OHIO,KZZV 121000Z AUTO 06004KT 10SM OVC110 M03/M08 A3035 RMK T10301080 MADISHFZZV,10:00
KIAD,FAIRFAX VIRGINIA,KIAD 291200Z AUTO 15008KT 10SM OVC075 00/M06 A2987 RMK T00001060 MADISHFIAD,12:00
KENW,KENOSHA WISCONSIN,KENW 111800Z AUTO 09013KT 9SM OVC011 M01/M03 A3014 RMK T10101030 MADISHFENW,18:00
KY50,MARQUETTE WISCONSIN,KY50 151900Z AUTO 22012KT 10SM OVC009 M02/M03 A2996 RMK T10201030 MADISHFY50,19:00
KSBM,SHEBOYGAN WISCONSIN,KSBM 151900Z AUTO 24016KT 10SM OVC012 M02/M04 A2997 RMK T10201040 MADISHFSBM,19:00
KSBM,SHEBOYGAN WISCONSIN,KSBM 051800Z AUTO 04010G15KT 10SM OVC018 M07/M11 A3020 RMK T10701110 MADISHFSBM,18:00
KY50,MARQUETTE WISCONSIN,KY50 021900Z AUTO 22006KT 6SM BR OVC006 02/01 A2987 RMK T00200010 MADISHFY50,19:00
KSBM,SHEBOYGAN WISCONSIN,KSBM 021900Z AUTO 23005KT 5SM BR OVC007 02/M01 A2992 RMK T00201010 MADISHFSBM,19:00
KY50,MARQUETTE WISCONSIN,KY50 070850Z AUTO 07006KT 8SM OVC006 M07/M07 A2996 RMK T10701070 MADISHFY50,08:45
KENW,KENOSHA WISCONSIN,KENW 070320Z AUTO 04010KT 10SM BKN009 OVC015 05/M01 A2996 RMK P0000 T00501010 CIG 7V12  MADISHFENW,03:20
KY50,MARQUETTE WISCONSIN,KY50 221200Z AUTO 15009KT 10SM OVC070 M09/M16 A3012 RMK T10901160 MADISHFY50,12:00
KENW,KENOSHA WISCONSIN,KENW 221100Z AUTO 16013KT 10SM CLR M07/M13 A3020 RMK T10701130 MADISHFENW,11:00
KRAC,RACINE WISCONSIN,KRAC 221100Z AUTO 17018KT 10SM CLR M06/M11 A3020 RMK T10601110 MADISHFRAC,11:00
KRAC,RACINE WISCONSIN,KRAC 051800Z AUTO 04008KT 10SM OVC016 M03/M07 A3019 RMK T10301070 MADISHFRAC,18:00
KY50,MARQUETTE WISCONSIN,KY50 051600Z AUTO 05008KT 10SM FEW021 M07/M12 A3020 RMK T10701120 MADISHFY50,16:00
KMKE,MILWAUKEE WISCONSIN,KMKE 051800Z AUTO 04012KT 10SM OVC016 M03/M08 A3019 RMK T10301080 MADISHFMKE,18:00
KRAC,RACINE WISCONSIN,KRAC 070330Z AUTO 04014G19KT 9SM -FZRA OVC011 00/M02 A2998 RMK T00001020 MADISHFRAC,03:30
KMKE,MILWAUKEE WISCONSIN,KMKE 070500Z AUTO 04010KT 10SM OVC009 00/M02 A2998 RMK T00001020 MADISHFMKE,05:00
KSBM,SHEBOYGAN WISCONSIN,KSBM 070700Z AUTO 35006KT 10SM OVC007 M04/M06 A2997 RMK T10401060 MADISHFSBM,07:00
KSBM,SHEBOYGAN WISCONSIN,KSBM 230530Z AUTO 06005KT 4SM BR OVC100 M03/M05 A3029 RMK T10301050 MADISHFSBM,05:30
KLUK,GRANT KENTUCKY,KLUK 192100Z AUTO 02012KT 2SM -RA BR OVC007 03/02 A2956 RMK T00300020 MADISHFLUK,21:00
KHAO,ROSS OHIO,KHAO 192100Z AUTO ///16KT 3SM -RA BR BKN009 OVC018 01/00 A2959 RMK P0000 T00100000 MADISHFHAO,21:00
KCHO,WARREN VIRGINIA,KCHO 291200Z AUTO 18006KT 10SM CLR M01/M07 A2985 RMK T10101070 MADISHFCHO,12:00
KBTV,ESSEX VERMONT,KBTV 291600Z AUTO 21009KT 9SM -SN SCT032 SCT070 OVC085 M06/M09 A2990 RMK T10601090 MADISHFBTV,16:00
KMKC,RANDOLPH MISSOURI,KMKC 211400Z AUTO 09009G14KT 10SM OVC014 M07/M11 A3021 RMK T10701110 MADISHFMKC,14:00
KENW,KENOSHA WISCONSIN,KENW 261700Z AUTO 01007KT 3SM -SN SCT019 BKN027 OVC055 M07/M11 A3050 RMK T10701110 MADISHFENW,17:00
KMKE,MILWAUKEE WISCONSIN,KMKE 261700Z AUTO 36010KT 1SM -SN BKN013 OVC019 M09/M13 A3051 RMK T10901130 MADISHFMKE,17:00
KRAC,RACINE WISCONSIN,KRAC 261700Z AUTO 04011KT 9SM SCT022 OVC032 M07/M11 A3052 RMK T10701110 MADISHFRAC,17:00
KMKE,MILWAUKEE WISCONSIN,KMKE 170700Z AUTO ///14KT 10SM BKN023 OVC028 M02/M08 A3002 RMK T10201080 MADISHFMKE,07:00
KSBM,SHEBOYGAN WISCONSIN,KSBM 170800Z AUTO 08008KT 10SM FEW024 M04/M08 A3004 RMK T10401080 MADISHFSBM,08:00
KENW,KENOSHA WISCONSIN,KENW 170600Z AUTO 10016KT 10SM OVC022 M03/M07 A2996 RMK T10301070 MADISHFENW,06:00
KRAC,RACINE WISCONSIN,KRAC 170600Z AUTO 10016KT 10SM OVC025 M03/M08 A3000 RMK T10301080 MADISHFRAC,06:00
KHFD,HARTFORD CONNECTICUT,KHFD 121300Z AUTO 02008KT 10SM FEW120 M07/M18 A3046 RMK T10701180 MADISHFHFD,13:00
KRSL,GRANT KANSAS,KRSL 112200Z AUTO 05008KT 2 1/2SM RA BR OVC003 01/01 A2993 RMK P0000 T00100010 MADISHFRSL,22:00
KDDC,GRAY KANSAS,KDDC 112200Z AUTO 01014KT 2SM -SN BR OVC003 01/M01 A2988 RMK T00101010 MADISHFDDC,22:00
KBOS,SUFFOLK MASSACHUSETTS,KBOS 180500Z AUTO 20009KT 10SM OVC050 00/M07 A3004 RMK T00001070 MADISHFBOS,05:00
KIJD,TOLLAND CONNECTICUT,KIJD 121300Z AUTO 06007KT 10SM CLR M07/M18 A3045 RMK T10701180 MADISHFIJD,13:00
KIJD,WINDHAM CONNECTICUT,KIJD 192000Z AUTO 13004KT 10SM OVC046 02/M07 A3019 RMK T00201070 VRB04KT  MADISHFIJD,20:00
KSLG,LOGAN ARKANSAS,KSLG 190600Z AUTO ///12KT 10SM RA SCT007 BKN026 OVC060 08/07 A2964 RMK P0000 T00800070  LTG DSNT ALQDS! MADISHFSLG,06:00
KHRO,BOONE ARKANSAS,KHRO 190230Z AUTO 11007KT 2 1/2SM -RA BR OVC004 08/08 A2972 RMK AO2 RAB0154E06B27 CIG 002V007 P0000 T00830078HRO,02:30
KPBF,SALINE ARKANSAS,KPBF 190800Z AUTO 19010KT 10SM OVC009 17/16 A2962 RMK T01700160 CIG 7V12  MADISHFPBF,08:00
KSRC,SEARCY ARKANSAS,KSRC 190630Z AUTO 18008KT 10SM OVC003 13/13 A2968 RMK T01300130 MADISHFSRC,06:30
KLIT,SCOTT ARKANSAS,KLIT 190620Z AUTO 17008KT 5SM BR BKN008 BKN013 OVC026 14/14 A2968 RMK T01400140 MADISHFLIT,06:20
KLLQ,BAXTER ARKANSAS,KLLQ 190450Z AUTO 19010G16KT 10SM OVC004 17/16 A2976 RMK P0000 T01700160  LTG DSNT SW-N! MADISHFLLQ,04:45
KBVX,SHARP ARKANSAS,KBVX 190900Z AUTO 00000KT 1/2SM FG OVC003 12/12 A2960 RMK T01200120 MADISHFBVX,09:00
KSGT,LAWRENCE ARKANSAS,KSGT 190950Z AUTO 24013KT 7SM RA BKN009 BKN015 OVC025 16/15 A2962 RMK P0003 T01600150 WND 19V27 CIG 7V12  MADISHFSGT,09:45
KAWM,MARION ARKANSAS,KAWM 190300Z AUTO 13014KT 9SM BKN011 OVC038 12/12 A2980 RMK T01200120  LTG DSNT W! MADISHFAWM,03:00
KBWI,CARROLL MARYLAND,KBWI 291200Z AUTO 10004KT 10SM SCT016 OVC070 00/M04 A2993 RMK T00001040 MADISHFBWI,12:00
KDFI,DEFIANCE OHIO,KDFI 221700Z AUTO 15007KT 10SM CLR M07/M16 A3031 RMK T10701160 MADISHFDFI,17:00
KZZV,PUTNAM OHIO,KZZV 121100Z AUTO 06003KT 10SM OVC090 M03/M09 A3036 RMK T10301090 MADISHFZZV,11:00
KBKL,HENRY OHIO,KBKL 121100Z AUTO 13005KT 10SM CLR M03/M09 A3039 RMK T10301090 MADISHFBKL,11:00
KDFI,DEFIANCE OHIO,KDFI 121100Z AUTO 07005KT 10SM FEW120 M04/M07 A3037 RMK T10401070 MADISHFDFI,11:00
KSRC,CLAY ARKANSAS,KSRC 191400Z AUTO 36013KT 10SM CLR 11/11 A2957 RMK T01100110 MADISHFSRC,14:00
KDAY,UNION OHIO,KDAY 121000Z AUTO 13005KT 3SM -SN OVC036 M02/M06 A3031 RMK T10201060 VIS 2 RWY 6L  MADISHFDAY,10:00
KLUK,GRANT KENTUCKY,KLUK 072200Z AUTO 00000KT 10SM OVC100 04/M09 A3032 RMK T00401090 MADISHFLUK,22:00
KILN,HIGHLAND OHIO,KILN 072200Z AUTO 00000KT 10SM OVC110 00/M09 A3030 RMK T00001090 MADISHFILN,22:00
KLUK,MONTGOMERY OHIO,KLUK 030800Z AUTO 01005KT 5SM BR BKN012 OVC019 02/00 A3015 RMK T00200000 MADISHFLUK,08:00
KYNG,WARREN OHIO,KYNG 030800Z AUTO 33005KT 9SM SCT013 OVC025 M02/M04 A3012 RMK T10201040 MADISHFYNG,08:00
KBWI,CARROLL MARYLAND,KBWI 171600Z AUTO 07009KT 10SM OVC046 01/M05 A3037 RMK T00101050 MADISHFBWI,16:00
KBOS,SUFFOLK MASSACHUSETTS,KBOS 191800Z AUTO 07006KT 10SM OVC032 M01/M11 A3028 RMK T10101110 MADISHFBOS,18:00
KIJD,TOLLAND CONNECTICUT,KIJD 192000Z AUTO 13004KT 10SM OVC046 02/M07 A3019 RMK T00201070 VRB04KT  MADISHFIJD,20:00
KCVG,UNION KENTUCKY,KCVG 191700Z AUTO 06010KT 2SM RA BR OVC003 03/03 A2967 RMK P0001 T00300030 MADISHFCVG,17:00
KEHR,HENDERSON KENTUCKY,KEHR 191700Z AUTO 33008KT 1 1/2SM -RA BR OVC003 07/06 A2959 RMK T00700060 MADISHFEHR,17:00
KCNK,JEWELL KANSAS,KCNK 221000Z AUTO 34007KT 10SM OVC018 01/M01 A2969 RMK T00101010 MADISHFCNK,10:00
KRMG,CHATTOOGA GEORGIA,KRMG 290500Z AUTO 16003KT 10SM OVC065 09/03 A2988 RMK T00900030 MADISHFRMG,05:00
KABY,WALKER GEORGIA,KABY 290500Z AUTO 20005KT 10SM CLR 07/03 A3004 RMK T00700030 MADISHFABY,05:00
KILG,CALVERT MARYLAND,KILG 200500Z AUTO 00000KT 10SM CLR 00/M12 A3061 RMK T00001120 MADISHFILG,05:00
KABE,NORTHAMPTON PENNSYLVANIA,KABE 080100Z AUTO 14004KT 10SM BKN065 00/M09 A3032 RMK T00001090 MADISHFABE,01:00
KPHL,PHILADELPHIA PENNSYLVANIA,KPHL 122000Z AUTO 16003KT 10SM FEW100 01/M16 A3051 RMK T00101160 MADISHFPHL,20:00
KBMG,SPENCER INDIANA,KBMG 111800Z AUTO 10005KT 10SM CLR M01/M06 A3034 RMK T10101060 MADISHFBMG,18:00
KLBB,DICKENS TEXAS,KLBB 021750Z AUTO 29007KT 10SM OVC022 M02/M08 A3014 RMK T10201080 MADISHFLBB,17:45
KSET,KANE ILLINOIS,KSET 220900Z AUTO 14011KT 10SM CLR M04/M09 A3015 RMK T10401090 MADISHFSET,09:00
KRSL,OSBORNE KANSAS,KRSL 221000Z AUTO 35014G20KT 8SM OVC007 M03/M03 A2969 RMK T10301030 MADISHFRSL,10:00
KCMX,KEWEENAW MICHIGAN,KCMX 220900Z AUTO 16007KT 9SM SCT044 OVC075 M08/M14 A3017 RMK T10801140 MADISHFCMX,09:00
KCXY,BERKS PENNSYLVANIA,KCXY 080100Z AUTO 13008KT 10SM CLR 01/M09 A3028 RMK T00101090 MADISHFCXY,01:00
KFFT,BALLARD KENTUCKY,KFFT 111600Z AUTO 08007KT 10SM CLR M01/M07 A3040 RMK T10101070 MADISHFFFT,16:00
KHOP,HOPKINS KENTUCKY,KHOP 191800Z AUTO 16005KT 10SM -DZ SCT007 SCT012 13/13 A2950 RMK AO2 SLP991HOP,18:00
KHSI,CLAY NEBRASKA,KHSI 111800Z AUTO 02005KT 10SM OVC100 01/M03 A3004 RMK T00101030 MADISHFHSI,18:00
KBUY,ALAMANCE NORTH CAROLINA,KBUY 122100Z AUTO 05004KT 10SM OVC060 04/M08 A3039 RMK T00401080 MADISHFBUY,21:00
KLNK,DOUGLAS NEBRASKA,KLNK 181700Z AUTO 06008KT 1SM BR OVC003 M02/M02 A2995 RMK T10201020 MADISHFLNK,17:00
KLOZ,LIVINGSTON KENTUCKY,KLOZ 111700Z AUTO 10006KT 10SM CLR 00/M07 A3034 RMK T00001070 MADISHFLOZ,17:00
KCVG,CRITTENDEN KENTUCKY,KCVG 111700Z AUTO 08004KT 9SM BKN021 OVC022 M02/M07 A3037 RMK T10201070 MADISHFCVG,17:00
KFFT,CHRISTIAN KENTUCKY,KFFT 191800Z AUTO 17011KT 2 1/2SM RA BR BKN007 BKN030 OVC070 10/09 A2957 RMK P0002 T01000090 MADISHFFFT,18:00
KPAH,MASSAC ILLINOIS,KPAH 191600Z AUTO 34013KT 2SM RA BR OVC004 07/06 A2959 RMK P0000 T00700060 MADISHFPAH,16:00
KUGN,MCHENRY ILLINOIS,KUGN 220900Z AUTO 16009KT 10SM CLR M07/M13 A3026 RMK T10701130 MADISHFUGN,09:00
KMPO,LEHIGH PENNSYLVANIA,KMPO 080100Z AUTO 14008KT 10SM SCT024 SCT050 M06/M13 A3021 RMK T10601130 MADISHFMPO,01:00
KLUK,CALDWELL KENTUCKY,KLUK 111700Z AUTO 07003KT 10SM OVC026 M01/M07 A3043 RMK T10101070 VRB03KT  MADISHFLUK,17:00
KCVG,UNION KENTUCKY,KCVG 111800Z AUTO 10003KT 10SM SCT023 BKN100 00/M07 A3036 RMK T00001070 VRB03KT  MADISHFCVG,18:00
KSLN,BARTON KANSAS,KSLN 190900Z AUTO 06006KT 9SM CLR M07/M09 RMK T10701090 MADISHFSLN,09:00
KRFD,WINNEBAGO ILLINOIS,KRFD 220800Z AUTO 14015KT 10SM FEW110 M11/M16 A3023 RMK T11101160 MADISHFRFD,08:00
KVPZ,PORTER INDIANA,KVPZ 220900Z AUTO 14011G16KT 10SM CLR M09/M16 A3029 RMK T10901160 MADISHFVPZ,09:00
KMFD,SHELBY OHIO,KMFD 121000Z AUTO 13004KT 8SM CLR M06/M08 A3034 RMK T10601080 MADISHFMFD,10:00
KAOH,MERCER OHIO,KAOH 121000Z AUTO 10006KT 10SM BKN120 M03/M07 A3032 RMK T10301070 MADISHFAOH,10:00
KIAD,FAIRFAX VIRGINIA,KIAD 102100Z AUTO 20005KT 10SM OVC100 03/M09 A3046 RMK T00301090 MADISHFIAD,21:00
KCMX,BARAGA MICHIGAN,KCMX 010100Z AUTO 02015G20KT 7SM -SN OVC009 M07/M11 A2998 RMK T10701110 MADISHFCMX,01:00
KEHR,HENDERSON KENTUCKY,KEHR 111800Z AUTO 12006KT 10SM BKN090 01/M07 A3034 RMK T00101070 MADISHFEHR,18:00
KSET,HARDIN ILLINOIS,KSET 191600Z AUTO 01019G24KT 1SM -SN BR SCT009 OVC015 00/M02 A2987 RMK T00001020 MADISHFSET,16:00
KCMX,ONTONAGON MICHIGAN,KCMX 070100Z AUTO 12017KT 10SM CLR M03/M08 A3018 RMK T10301080 MADISHFCMX,01:00
KCNK,RICE KANSAS,KCNK 062000Z AUTO 02011KT 7SM OVC009 M08/M10 A2992 RMK T10801100 MADISHFCNK,20:00
KROA,ROCKINGHAM VIRGINIA,KROA 200300Z AUTO 15008KT 10SM OVC060 04/M03 A3054 RMK T00401030 MADISHFROA,03:00
KROA,ROCKINGHAM VIRGINIA,KROA 101900Z AUTO 25004KT 10SM BKN100 03/M11 A3051 RMK T00301110 MADISHFROA,19:00
KCXY,BERKS PENNSYLVANIA,KCXY 290700Z AUTO 11006KT 10SM OVC039 M02/M11 A2996 RMK T10201110 MADISHFCXY,07:00
KMPO,LEHIGH PENNSYLVANIA,KMPO 290730Z AUTO 11006KT 10SM SCT120 M09/M15 A2988 RMK T10901150 MADISHFMPO,07:30
KCXY,BERKS PENNSYLVANIA,KCXY 191700Z AUTO 13008KT 10SM OVC036 02/M03 A3015 RMK T00201030 MADISHFCXY,17:00
KMPO,LEHIGH PENNSYLVANIA,KMPO 191700Z AUTO 10007KT 10SM OVC024 M03/M08 A3011 RMK T10301080 MADISHFMPO,17:00
KABE,NORTHAMPTON PENNSYLVANIA,KABE 191730Z AUTO 11006KT 10SM OVC038 02/M07 A3018 RMK T00201070 MADISHFABE,17:30
KCGI,BOLLINGER MISSOURI,KCGI 111500Z AUTO 13005KT 10SM FEW079 OVC110 M01/M06 A3036 RMK T10101060 MADISHFCGI,15:00
KCNK,JEWELL KANSAS,KCNK 211600Z AUTO 12015KT 10SM CLR M06/M08 A2990 RMK T10601080 MADISHFCNK,16:00
KGLD,WALLACE KANSAS,KGLD 221200Z AUTO 36021G28KT 10SM OVC012 M08/M09 A2982 RMK T10801090 MADISHFGLD,12:00
KRSL,CHEYENNE KANSAS,KRSL 220900Z AUTO 34013KT 9SM SCT006 BKN013 M03/M03 A2967 RMK T10301030 MADISHFRSL,09:00
KJLN,SHERMAN KANSAS,KJLN 220800Z AUTO 16020G26KT 10SM OVC029 07/00 A2984 RMK T00700000 MADISHFJLN,08:00
KIOW,BUCHANAN IOWA,KIOW 220800Z AUTO 13011KT 10SM OVC060 M07/M11 A3011 RMK T10701110 MADISHFIOW,08:00
KABE,NORTHAMPTON PENNSYLVANIA,KABE 290830Z AUTO 05005KT 10SM SCT079 M06/M12 A2998 RMK T10601120 MADISHFABE,08:30
KJLN,CARTER MISSOURI,KJLN 111400Z AUTO 15010KT 10SM OVC047 03/01 A3013 RMK T00300010 MADISHFJLN,14:00
KBNA,FRANKLIN TENNESSEE,KBNA 290300Z AUTO 28005KT 10SM -RA FEW036 OVC048 07/04 A2989 RMK T00700040 MADISHFBNA,03:00
KLXT,RIPLEY MISSOURI,KLXT 111400Z AUTO /////KT 10SM -RA OVC047 03/00 A3013 RMK T00300000 MADISHFLXT,14:00
KPOF,STODDARD MISSOURI,KPOF 111500Z AUTO 09003KT 9SM BKN070 OVC085 M01/M03 A3035 RMK T10101030 MADISHFPOF,15:00
KJEF,SCOTT MISSOURI,KJEF 111500Z AUTO 13008KT 10SM BKN055 OVC079 03/M04 A3025 RMK T00301040 MADISHFJEF,15:00
KDFW,TARRANT TEXAS,KDFW 020800Z AUTO 34011KT 10SM OVC019 01/M03 A3028 RMK T00101030 MADISHFDFW,08:00
KGCC,WESTON WYOMING,KGCC 211300Z AUTO 22016KT 10SM CLR 03/M03 RMK T00301030 MADISHFGCC,13:00
KABI,HASKELL TEXAS,KABI 020310Z AUTO 01008KT 9SM OVC009 M02/M04 A3029 RMK T10201040 MADISHFABI,03:05
K1M4,CLARKE ALABAMA,K1M4 290600Z AUTO 32008KT 10SM RA SCT024 BKN033 OVC039 07/06 A2995 RMK T00700060 MADISHF1M4,06:00
KBMG,SPENCER INDIANA,KBMG 191900Z AUTO 02015G20KT 2SM -RA BR OVC006 02/01 A2960 RMK T00200010 MADISHFBMG,19:00
KEWK,SEDGWICK KANSAS,KEWK 062000Z AUTO 02012KT 1/2SM FZFG OVC002 M06/M06 A2985 RMK T10601060 MADISHFEWK,20:00
KMKL,CARROLL TENNESSEE,KMKL 191500Z AUTO 16005KT 6SM -RA BR OVC079 14/13 A2957 RMK P0000 T01400130 MADISHFMKL,15:00
KCMX,BARAGA MICHIGAN,KCMX 240800Z AUTO 27004KT 6SM -SN BKN011 OVC036 M08/M11 A2965 RMK T10801110 MADISHFCMX,08:00
KFFT,BALLARD KENTUCKY,KFFT 191600Z AUTO 10004KT 5SM -RA BR BKN008 OVC013 08/07 A2968 RMK P0000 T00800070 MADISHFFFT,16:00
KLEX,CARLISLE KENTUCKY,KLEX 191600Z AUTO 14010KT 7SM -RA SCT016 OVC070 07/06 A2969 RMK T00700060 MADISHFLEX,16:00
KDYR,HICKMAN KENTUCKY,KDYR 191600Z AUTO 26013KT 5SM +RA BR FEW004 BKN022 OVC027 13/13 A2957 RMK T01300130 MADISHFDYR,16:00
KMKL,GIBSON TENNESSEE,KMKL 191500Z AUTO 16005KT 6SM -RA BR OVC079 14/13 A2957 RMK P0000 T01400130 MADISHFMKL,15:00
KBNA,WILLIAMSON TENNESSEE,KBNA 300200Z AUTO 21005KT 10SM CLR M03/M15 A3017 RMK T10301150 MADISHFBNA,02:00
KJCT,MENARD TEXAS,KJCT 020200Z AUTO 04008KT 7SM OVC007 01/M01 A3026 RMK T00101010 MADISHFJCT,02:00
KFOE,HARVEY KANSAS,KFOE 062000Z AUTO 01009KT 2 1/2SM BR OVC004 M05/M07 A2989 RMK T10501070 MADISHFFOE,20:00
KACT,ERATH TEXAS,KACT 031000Z AUTO 33012KT 3SM UP BR OVC006 02/01 A3003 RMK P0000 T00200010 MADISHFACT,10:00
KPAH,MASSAC ILLINOIS,KPAH 111700Z AUTO 11005KT 10SM OVC090 02/M07 A3031 RMK T00201070 MADISHFPAH,17:00
KPAH,FULTON KENTUCKY,KPAH 191600Z AUTO 34013KT 2SM RA BR OVC004 07/06 A2959 RMK P0000 T00700060 MADISHFPAH,16:00
KDDH,BENNINGTON VERMONT,KDDH 290900Z AUTO 14013KT 10SM CLR M06/M13 A2995 RMK T10601130 MADISHFDDH,09:00
KHUT,KINGMAN KANSAS,KHUT 062000Z AUTO 03008KT 3SM BR OVC004 M06/M06 A2986 RMK T10601060 MADISHFHUT,20:00
KGZH,JACKSON ALABAMA,KGZH 290200Z AUTO 19004KT 10SM CLR 10/03 A3001 RMK T01000030 MADISHFGZH,02:00
KSET,HARDIN ILLINOIS,KSET 111800Z AUTO 14008KT 10SM OVC075 01/M06 A3027 RMK T00101060 MADISHFSET,18:00
KLOZ,LIVINGSTON KENTUCKY,KLOZ 191600Z AUTO 11005KT 5SM RA BR FEW049 SCT055 OVC075 08/07 A2972 RMK P0000 T00800070 MADISHFLOZ,16:00
KHUT,MCPHERSON KANSAS,KHUT 062000Z AUTO 03008KT 3SM BR OVC004 M06/M06 A2986 RMK T10601060 MADISHFHUT,20:00
KCMX,ONTONAGON MICHIGAN,KCMX 080600Z AUTO 27021G27KT 10SM OVC009 01/M02 A2950 RMK T00101020 MADISHFCMX,06:00
KIAD,FAIRFAX VIRGINIA,KIAD 010700Z AUTO 00000KT 10SM CLR M13/M16 A3042 RMK T11301160 MADISHFIAD,07:00
KDFI,PAULDING OHIO,KDFI 121100Z AUTO 07005KT 10SM FEW120 M04/M07 A3037 RMK T10401070 MADISHFDFI,11:00
KCVG,CRITTENDEN KENTUCKY,KCVG 191700Z AUTO 06010KT 2SM RA BR OVC003 03/03 A2967 RMK P0001 T00300030 MADISHFCVG,17:00
KLUK,CALDWELL KENTUCKY,KLUK 191700Z AUTO 04006KT 3SM RA BR OVC009 04/03 A2971 RMK P0000 T00400030 MADISHFLUK,17:00
KSLN,BARTON KANSAS,KSLN 062000Z AUTO 01012KT 4SM BR OVC006 M07/M07 RMK T10701070 MADISHFSLN,20:00
KHTL,ALGER MICHIGAN,KHTL 081600Z AUTO 18005KT 4SM -RA BR BKN006 OVC044 02/01 A2964 RMK T00200010 MADISHFHTL,16:00
KHTL,ALGER MICHIGAN,KHTL 090800Z AUTO 31013KT 10SM FEW016 BKN047 OVC070 M06/M09 A2987 RMK T10601090 MADISHFHTL,08:00
KMNM,MENOMINEE MICHIGAN,KMNM 101000Z AUTO 00000KT 10SM OVC095 M14/M17 A3059 RMK T11401170 MADISHFMNM,10:00
KDAY,UNION OHIO,KDAY 010100Z AUTO 19005KT 4SM -SN OVC039 M12/M17 A3034 RMK T11201170 MADISHFDAY,01:00
KHZY,MADISON OHIO,KHZY 010100Z AUTO 23003KT 10SM CLR M18/M25 A3036 RMK T11801250 MADISHFHZY,01:00
KZZV,LICKING OHIO,KZZV 010100Z AUTO 00000KT 10SM OVC110 M13/M21 A3038 RMK T11301210 MADISHFZZV,01:00
KADG,FAYETTE OHIO,KADG 010100Z AUTO 24003KT 10SM BKN120 M19/M27 A3037 RMK T11901270 MADISHFADG,01:00
KHAO,ROSS OHIO,KHAO 010100Z AUTO 00000KT 10SM OVC039 M09/M17 A3037 RMK T10901170 MADISHFHAO,01:00
KYNG,WARREN OHIO,KYNG 010100Z AUTO 22003KT 10SM M16/M23 A3031 RMK T11601230 MADISHFYNG,01:00
KMFD,BUTLER OHIO,KMFD 010100Z AUTO 21008KT 10SM OVC110 M14/M20 A3030 RMK T11401200 MADISHFMFD,01:00
KMPO,LEHIGH PENNSYLVANIA,KMPO 201030Z AUTO 00000KT 10SM CLR M08/M11 A3044 RMK T10801110 MADISHFMPO,10:30
KABE,NORTHAMPTON PENNSYLVANIA,KABE 201100Z AUTO 07008KT 10SM CLR M02/M12 A3054 RMK T10201120 MADISHFABE,11:00
KPHL,PHILADELPHIA PENNSYLVANIA,KPHL 201030Z AUTO 07007KT 10SM M01/M12 A3056 RMK T10101120 MADISHFPHL,10:30
KMFD,BUTLER OHIO,KMFD 101000Z AUTO 09004KT 9SM CLR M10/M11 A3055 RMK T11001110 MADISHFMFD,10:00
KSUX,DIXON NEBRASKA,KSUX 031900Z AUTO 04003KT 1/2SM FG OVC002 08/08 A2960 RMK T00800080 MADISHFSUX,19:00
KSBM,SHEBOYGAN WISCONSIN,KSBM 261700Z AUTO 03007KT 10SM OVC090 M13/M19 A3054 RMK T11301190 MADISHFSBM,17:00
KDTN,CADDO LOUISIANA,KDTN 081610Z AUTO 02009KT 10SM CLR 00/M07 A3067 RMK T00001070 MADISHFDTN,16:12
KTPL,SMITH TEXAS,KTPL 081610Z AUTO 35012KT 10SM SCT075 BKN100 M02/M08 A3062 RMK T10201080 MADISHFTPL,16:12
KGGG,GREGG TEXAS,KGGG 081610Z AUTO 04012KT 10SM CLR M01/M07 A3062 RMK T10101070 MADISHFGGG,16:12
KACT,HARRISON TEXAS,KACT 081610Z AUTO 02010KT 10SM CLR M02/M10 A3067 RMK T10201100 MADISHFACT,16:12
KSHV,PANOLA TEXAS,KSHV 081610Z AUTO 03011KT 10SM CLR M01/M07 A3064 RMK T10101070 MADISHFSHV,16:12
KAQO,CHEROKEE TEXAS,KAQO 081610Z AUTO 02003KT 10SM CLR 01/M07 A3067 RMK AO2AQO,16:12
KOCH,NACOGDOCHES TEXAS,KOCH 081610Z AUTO 36007KT 10SM SCT100 OVC120 M01/M06 A3063 RMK T10101060 MADISHFOCH,16:12
KYNG,GREENE OHIO,KYNG 101000Z AUTO 09006KT 10SM M11/M13 A3060 RMK T11101130 MADISHFYNG,10:00
KCMX,ONTONAGON MICHIGAN,KCMX 201000Z AUTO 00000KT 10SM CLR M17/M21 A3015 RMK T11701210 MADISHFCMX,10:00
KDTN,BOSSIER LOUISIANA,KDTN 081610Z AUTO 02009KT 10SM CLR 00/M07 A3067 RMK T00001070 MADISHFDTN,16:12
KBPT,SABINE TEXAS,KBPT 081610Z AUTO 01015KT 10SM OVC110 06/M04 A3052 RMK T00601040 MADISHFBPT,16:12
KLUK,MONTGOMERY OHIO,KLUK 101000Z AUTO 04003KT 10SM CLR M06/M08 A3055 RMK T10601080 MADISHFLUK,10:00
KDAY,UNION OHIO,KDAY 101000Z AUTO 10006KT 10SM CLR M07/M11 A3054 RMK T10701110 MADISHFDAY,10:00
KEYE,FAYETTE INDIANA,KEYE 200100Z AUTO 08009KT 10SM CLR 00/M06 A3038 RMK T00001060 MADISHFEYE,01:00
KMNM,MENOMINEE MICHIGAN,KMNM 230100Z AUTO 22003KT 10SM CLR M03/M08 A3037 RMK T10301080 MADISHFMNM,01:00
KDFI,DEFIANCE OHIO,KDFI 120100Z AUTO 06011KT 8SM OVC009 M02/M04 A3012 RMK T10201040 MADISHFDFI,01:00
KDFI,PAULDING OHIO,KDFI 120100Z AUTO 06011KT 8SM OVC009 M02/M04 A3012 RMK T10201040 MADISHFDFI,01:00
KADG,FAYETTE OHIO,KADG 200100Z AUTO 08004KT 10SM CLR M04/M09 A3052 RMK T10401090 MADISHFADG,01:00
KYNG,GREENE OHIO,KYNG 200100Z AUTO 13004KT 10SM CLR M03/M10 A3053 RMK T10301100 MADISHFYNG,01:00
KZZV,LICKING OHIO,KZZV 200100Z AUTO 07005KT 10SM CLR 00/M07 A3048 RMK T00001070 MADISHFZZV,01:00
KFNB,NEMAHA NEBRASKA,KFNB 231200Z AUTO 04005KT 4SM BR OVC003 01/00 A2986 RMK T00100000 MADISHFFNB,12:00
KZZV,PUTNAM OHIO,KZZV 120100Z AUTO 06005KT 6SM -RA BR OVC004 03/01 A3009 RMK P0000 T00300010 MADISHFZZV,01:00
KLUK,MONTGOMERY OHIO,KLUK 200100Z AUTO 05005KT 10SM CLR 01/M05 A3045 RMK T00101050 MADISHFLUK,01:00
KHAO,ROSS OHIO,KHAO 200100Z AUTO 09007KT 10SM CLR 01/M04 A3045 RMK T00101040 MADISHFHAO,01:00
KMFD,SHELBY OHIO,KMFD 200100Z AUTO 09007KT 10SM CLR M03/M07 A3048 RMK T10301070 MADISHFMFD,01:00
KDAY,UNION OHIO,KDAY 200100Z AUTO 08008KT 10SM M01/M06 A3045 RMK T10101060 MADISHFDAY,01:00
KHZY,MADISON OHIO,KHZY 200100Z AUTO 00000KT 10SM CLR M06/M10 A3056 RMK T10601100 MADISHFHZY,01:00
KBKL,NOBLE OHIO,KBKL 010100Z AUTO 22012KT 10SM CLR M14/M24 A3038 RMK T11401240 MADISHFBKL,01:00
KZZV,COSHOCTON OHIO,KZZV 010100Z AUTO 00000KT 10SM OVC110 M13/M21 A3038 RMK T11301210 MADISHFZZV,01:00
KY50,MARQUETTE WISCONSIN,KY50 261700Z AUTO 07008KT 10SM OVC065 M14/M20 A3055 RMK T11401200 MADISHFY50,17:00
KMLU,CLAIBORNE LOUISIANA,KMLU 081610Z AUTO 02012KT 10SM CLR 01/M06 A3064 RMK T00101060 MADISHFMLU,16:12
KPHL,PHILADELPHIA PENNSYLVANIA,KPHL 102200Z AUTO 21010KT 10SM 02/M11 A3050 RMK T00201110 MADISHFPHL,22:00
KUCP,COLUMBIANA OHIO,KUCP 200100Z AUTO 11003KT 10SM CLR M03/M09 A3054 RMK T10301090 MADISHFUCP,01:00
KPHD,GUERNSEY OHIO,KPHD 200100Z AUTO 07006KT 10SM CLR M02/M07 A3053 RMK T10201070 MADISHFPHD,01:00
KCVG,HARRISON OHIO,KCVG 200100Z AUTO 09011KT 10SM 01/M06 A3042 RMK T00101060 MADISHFCVG,01:00
KBKL,NOBLE OHIO,KBKL 200100Z AUTO 05005KT 10SM CLR M03/M08 A3055 RMK T10301080 MADISHFBKL,01:00
KPHD,TUSCARAWAS OHIO,KPHD 200100Z AUTO 07006KT 10SM CLR M02/M07 A3053 RMK T10201070 MADISHFPHD,01:00
KZZV,PUTNAM OHIO,KZZV 200400Z AUTO 07006KT 10SM CLR M01/M08 A3040 RMK T10101080 MADISHFZZV,04:00
KUCP,ARMSTRONG PENNSYLVANIA,KUCP 200100Z AUTO 11003KT 10SM CLR M03/M09 A3054 RMK T10301090 MADISHFUCP,01:00
KBTP,BUTLER PENNSYLVANIA,KBTP 200100Z AUTO 08005KT 10SM CLR M04/M09 A3053 RMK T10401090 MADISHFBTP,01:00
KDFI,PAULDING OHIO,KDFI 200400Z AUTO 09006KT 10SM CLR M03/M06 A3045 RMK T10301060 MADISHFDFI,04:00
KBKL,HENRY OHIO,KBKL 200500Z AUTO 04006KT 10SM CLR M03/M07 A3045 RMK T10301070 MADISHFBKL,05:00
KDFI,DEFIANCE OHIO,KDFI 200500Z AUTO 08005KT 10SM CLR M03/M06 A3040 RMK T10301060 MADISHFDFI,05:00
KMLU,OUACHITA LOUISIANA,KMLU 081610Z AUTO 02012KT 10SM CLR 01/M06 A3064 RMK T00101060 MADISHFMLU,16:12
KHLC,NORTON KANSAS,KHLC 231100Z AUTO 05007KT 1/4SM FZFG VV002 M01/M01 A2978 RMK T10101010 MADISHFHLC,11:00
KDUJ,CLARION PENNSYLVANIA,KDUJ 200100Z AUTO 20003KT 10SM CLR M06/M12 A3050 RMK T10601120 MADISHFDUJ,01:00
KELM,GREENE PENNSYLVANIA,KELM 200100Z AUTO 00000KT 10SM CLR M08/M13 A3057 RMK T10801130 MADISHFELM,01:00
KUCP,MERCER PENNSYLVANIA,KUCP 200100Z AUTO 11003KT 10SM CLR M03/M09 A3054 RMK T10301090 MADISHFUCP,01:00
KAOH,MERCER OHIO,KAOH 010100Z AUTO 00000KT 10SM OVC070 M14/M22 A3034 RMK T11401220 MADISHFAOH,01:00
KMFD,SHELBY OHIO,KMFD 010100Z AUTO 21008KT 10SM OVC110 M14/M20 A3030 RMK T11401200 MADISHFMFD,01:00
KMNM,MENOMINEE MICHIGAN,KMNM 092100Z AUTO 07010KT 10SM CLR 00/M04 A2982 RMK T00001040 MADISHFMNM,21:00
KMTO,WABASH ILLINOIS,KMTO 030100Z AUTO 02005KT 10SM SCT028 OVC110 M01/M04 A3021 RMK T10101040 MADISHFMTO,01:00
KCHO,WARREN VIRGINIA,KCHO 011900Z AUTO 05007KT 5SM BR OVC004 03/01 A3015 RMK T00300010 MADISHFCHO,19:00
KROA,ROCKINGHAM VIRGINIA,KROA 011900Z AUTO 13005KT 2SM RA BR OVC006 03/02 A3011 RMK P0001 T00300020 MADISHFROA,19:00
KCMX,ONTONAGON MICHIGAN,KCMX 092100Z AUTO 10014G19KT 10SM CLR 00/M05 A2980 RMK T00001050 MADISHFCMX,21:00
KHTL,ALGER MICHIGAN,KHTL 100100Z AUTO 10019G24KT 10SM BKN110 M01/M09 A2971 RMK T10101090 MADISHFHTL,01:00
KRSL,GRANT KANSAS,KRSL 021500Z AUTO 04015KT 10SM CLR M07/M09 A3029 RMK T10701090 MADISHFRSL,15:00
KDDC,FORD KANSAS,KDDC 021500Z AUTO 05009KT 10SM OVC008 M06/M08 A3020 RMK T10601080 MADISHFDDC,15:00
KGBD,RUSH KANSAS,KGBD 021500Z AUTO 02016KT 10SM CLR M07/M09 A3028 RMK T10701090 MADISHFGBD,15:00
KDDC,GRAY KANSAS,KDDC 021500Z AUTO 05009KT 10SM OVC008 M06/M08 A3020 RMK T10601080 MADISHFDDC,15:00
KDPA,WAYNE ILLINOIS,KDPA 030100Z AUTO 34007KT 10SM OVC027 M02/M08 A3025 RMK T10201080 MADISHFDPA,01:00
KCGI,BOLLINGER MISSOURI,KCGI 030100Z AUTO 03005KT 10SM OVC029 03/M01 A3018 RMK T00301010 MADISHFCGI,01:00
KHTL,ALGER MICHIGAN,KHTL 150600Z AUTO 22014KT 9SM OVC012 03/01 A2938 RMK T00300010 MADISHFHTL,06:00
KHYS,ELLIS KANSAS,KHYS 021500Z AUTO 05011KT 10SM FEW012 M06/M09 RMK T10601090 MADISHFHYS,15:00
KLBL,MEADE KANSAS,KLBL 021500Z AUTO 09007KT 8SM OVC006 M04/M06 A3018 RMK T10401060 MADISHFLBL,15:00
KJLN,CARTER MISSOURI,KJLN 030100Z AUTO 02009KT 8SM OVC036 00/M06 A3020 RMK T00001060 MADISHFJLN,01:00
KBWI,CARROLL MARYLAND,KBWI 031300Z AUTO 02005KT 10SM OVC039 04/M04 A3017 RMK T00401040 MADISHFBWI,13:00
KPHL,PHILADELPHIA PENNSYLVANIA,KPHL 010330Z AUTO 08007KT 10SM 01/M11 A3028 RMK T00101110 MADISHFPHL,03:30
KBWI,CARROLL MARYLAND,KBWI 010100Z AUTO 07010KT 10SM CLR 03/M08 A3020 RMK T00301080 MADISHFBWI,01:00
KCXY,BERKS PENNSYLVANIA,KCXY 010300Z AUTO 08005KT 10SM BKN070 OVC110 01/M11 A3022 RMK T00101110 MADISHFCXY,03:00
KABE,NORTHAMPTON PENNSYLVANIA,KABE 012300Z AUTO 08005KT 10SM OVC016 02/M03 A3022 RMK T00201030 MADISHFABE,23:00
KMPO,LEHIGH PENNSYLVANIA,KMPO 012230Z AUTO 13005KT 10SM SCT016 OVC038 M02/M06 A3014 RMK T10201060 MADISHFMPO,22:30
KROA,ROCKINGHAM VIRGINIA,KROA 010100Z AUTO 12011KT 10SM OVC060 10/03 RMK T01000030 MADISHFROA,01:00
KROA,ROCKINGHAM VIRGINIA,KROA 080400Z AUTO 03002KT 10SM SCT055 SCT070 OVC095 03/M10 A3032 RMK T00301100 MADISHFROA,04:00
KCXY,BERKS PENNSYLVANIA,KCXY 012200Z AUTO 07007KT 10SM OVC019 01/M03 A3020 RMK T00101030 MADISHFCXY,22:00
KCHO,WARREN VIRGINIA,KCHO 010100Z AUTO 04005KT 10SM OVC044 07/M06 A3013 RMK T00701060 MADISHFCHO,01:00
KIAD,FAIRFAX VIRGINIA,KIAD 010100Z AUTO 10007KT 10SM OVC050 04/M08 A3018 RMK T00401080 MADISHFIAD,01:00
KYNG,GREENE OHIO,KYNG 030800Z AUTO 33005KT 9SM SCT013 OVC025 M02/M04 A3012 RMK T10201040 MADISHFYNG,08:00
KMML,COTTONWOOD MINNESOTA,KMML 031800Z AUTO 33011KT 2SM -SN BR OVC004 M11/M12 A2971 RMK T11101120 MADISHFMML,18:00
KROA,ROCKINGHAM VIRGINIA,KROA 031300Z AUTO 10004KT 10SM OVC022 06/01 A3010 RMK T00600010 MADISHFROA,13:00
KABE,NORTHAMPTON PENNSYLVANIA,KABE 100300Z AUTO 13005KT 10SM FEW023 05/M02 A3029 RMK T00501020 MADISHFABE,03:00
KPIA,EDWARDS ILLINOIS,KPIA 030100Z AUTO 35004KT 10SM OVC100 M02/M07 A3028 RMK T10201070 MADISHFPIA,01:00
KUCP,ARMSTRONG PENNSYLVANIA,KUCP 120650Z AUTO 10006KT 8SM UP OVC009 00/M01 A3004 RMK P0000 T00001010 MADISHFUCP,06:52
KSET,HARDIN ILLINOIS,KSET 030100Z AUTO 01005KT 9SM BKN033 BKN120 01/M05 A3026 RMK T00101050 MADISHFSET,01:00
KLWV,JACKSON ILLINOIS,KLWV 030100Z AUTO 35008KT 8SM OVC032 02/M04 A3021 RMK T00201040 MADISHFLWV,01:00
KBTP,BUTLER PENNSYLVANIA,KBTP 120650Z AUTO 09011KT 7SM UP OVC007 00/M01 A3004 RMK P0001 T00001010 MADISHFBTP,06:52
KDAL,DALLAS TEXAS,KDAL 280300Z AUTO ///14G19KT 5SM BR BKN007 01/M01 A3017 RMK T00101010 MADISHFDAL,03:00
KCHO,WARREN VIRGINIA,KCHO 031300Z AUTO 06005KT 4SM -RA BR FEW003 BKN013 OVC022 06/04 A3012 RMK P0000 T00600040 MADISHFCHO,13:00
KPAH,MASSAC ILLINOIS,KPAH 030100Z AUTO 06008KT 9SM OVC025 04/M01 A3014 RMK T00401010 MADISHFPAH,01:00
KDFW,TARRANT TEXAS,KDFW 280300Z AUTO ///17KT 6SM BR OVC008 M01/M02 A3014 RMK T10101020 MADISHFDFW,03:00
KDAL,DALLAS TEXAS,KDAL 280400Z AUTO 34011KT 7SM OVC007 01/M01 A3015 RMK T00101010 MADISHFDAL,04:00
KDFW,TARRANT TEXAS,KDFW 280300Z AUTO ///17KT 6SM BR OVC008 M01/M02 A3014 RMK T10101020 MADISHFDFW,03:00
KGLD,WALLACE KANSAS,KGLD 131600Z AUTO 14014KT 10SM BKN016 OVC022 07/05 RMK T00700050 MADISHFGLD,16:00
KFNB,DAWSON NEBRASKA,KFNB 020600Z AUTO 33005KT 10SM CLR M06/M09 A3026 RMK T10601090 MADISHFFNB,06:00
KODX,GREELEY NEBRASKA,KODX 290800Z AUTO 02010KT 10SM OVC029 03/00 A3017 RMK T00300000 MADISHFODX,08:00
KEAR,KEARNEY NEBRASKA,KEAR 020800Z AUTO 01008KT 10SM BKN015 OVC085 M07/M09 A3029 RMK T10701090 MADISHFEAR,08:00
KHSI,CLAY NEBRASKA,KHSI 020800Z AUTO 36010KT 10SM OVC120 M07/M10 A3029 RMK T10701100 MADISHFHSI,08:00
KHLC,PHILLIPS KANSAS,KHLC 022200Z AUTO 05016KT 6SM HZ OVC015 M07/M10 A3029 RMK T10701100 MADISHFHLC,22:00
KRSL,OSBORNE KANSAS,KRSL 022200Z AUTO 04016KT 10SM BKN015 OVC033 M06/M08 A3026 RMK T10601080 MADISHFRSL,22:00
KCNK,JEWELL KANSAS,KCNK 022300Z AUTO 02013KT 10SM BKN018 OVC050 M07/M11 A3034 RMK T10701110 MADISHFCNK,23:00
KGCC,WESTON WYOMING,KGCC 062000Z AUTO 08007KT 10SM OVC016 M05/M08 RMK T10501080 MADISHFGCC,20:00
KITH,MECKLENBURG NORTH CAROLINA,KITH 020700Z AUTO 07005KT 10SM CLR M05/M08 A3028 RMK T10501080 MADISHFITH,07:00
KUGN,MCHENRY ILLINOIS,KUGN 270900Z AUTO 01002KT 10SM CLR 01/M02 A2994 RMK T00101020 MADISHFUGN,09:00
KMKE,MILWAUKEE WISCONSIN,KMKE 141100Z AUTO ///14KT 10SM SCT044 BKN120 02/M02 A2989 RMK T00201020 MADISHFMKE,11:00
KENW,KENOSHA WISCONSIN,KENW 270700Z AUTO 03004KT 10SM CLR 04/00 A2993 RMK T00400000 MADISHFENW,07:00
KMKE,MILWAUKEE WISCONSIN,KMKE 270700Z AUTO 02002KT 10SM CLR 04/M01 A2993 RMK T00401010 MADISHFMKE,07:00
KRAC,RACINE WISCONSIN,KRAC 270700Z AUTO 00000KT 10SM CLR 04/M01 A2995 RMK T00401010 MADISHFRAC,07:00
KODX,GREELEY NEBRASKA,KODX 102100Z AUTO 02015G22KT 3SM -SN BR OVC006 02/01 A2955 RMK T00200010 MADISHFODX,21:00
KGCC,WESTON WYOMING,KGCC 101000Z AUTO 04005KT 1/2SM SN FG VV007 01/01 A2971 RMK P0000 T00100010 MADISHFGCC,10:00
KLSE,HOUSTON MINNESOTA,KLSE 100900Z AUTO 09008KT 10SM CLR A3003 RMK MADISHFLSE,09:00
KRFD,WINNEBAGO ILLINOIS,KRFD 270900Z AUTO 03005KT 10SM 07/M01 A2995 RMK T00701010 MADISHFRFD,09:00
KSET,KANE ILLINOIS,KSET 170400Z AUTO 07008KT 10SM FEW065 FEW095 OVC120 M01/M03 A2987 RMK T10101030 MADISHFSET,04:00
KHLC,PHILLIPS KANSAS,KHLC 191600Z AUTO 10010KT 2 1/2SM BR OVC004 M09/M10 RMK T10901100 MADISHFHLC,16:00
KEVV,POSEY INDIANA,KEVV 010300Z AUTO 00000KT 10SM OVC085 M05/M10 A3025 RMK T10501100 MADISHFEVV,03:00
KBMG,SPENCER INDIANA,KBMG 010300Z AUTO 08005KT 10SM OVC045 M09/M14 A3025 RMK T10901140 MADISHFBMG,03:00
KJYR,YORK NEBRASKA,KJYR 161700Z AUTO 12009KT 10SM OVC025 M11/M13 A2993 RMK AO2JYR,17:00
KRSL,OSBORNE KANSAS,KRSL 191600Z AUTO 07008KT 4SM BR OVC006 M08/M08 A3029 RMK T10801080 MADISHFRSL,16:00
KLNK,SEWARD NEBRASKA,KLNK 191800Z AUTO 09008KT 10SM SCT120 M06/M10 A3039 RMK T10601100 MADISHFLNK,18:00
KDDH,BENNINGTON VERMONT,KDDH 271500Z AUTO 22002KT 10SM FEW075 BKN090 M06/M22 A3038 RMK T10601220 VRB03KT  MADISHFDDH,15:00
KGRI,HOWARD NEBRASKA,KGRI 161500Z AUTO 12009KT 8SM OVC026 M12/M14 A2994 RMK T11201140 MADISHFGRI,15:00
KODX,GREELEY NEBRASKA,KODX 191600Z AUTO 12007KT 9SM FEW011 OVC041 M09/M12 A3032 RMK T10901120 MADISHFODX,16:00
KEAR,KEARNEY NEBRASKA,KEAR 191700Z AUTO 10007KT 8SM UP OVC009 M07/M11 A3029 RMK P0000 T10701110 MADISHFEAR,17:00
KEAR,KEARNEY NEBRASKA,KEAR 231100Z AUTO 03010KT 1/2SM FZFG OVC002 M03/M03 A2984 RMK T10301030 MADISHFEAR,11:00
KFDK,FREDERICK MARYLAND,KFDK 010700Z AUTO 00000KT 10SM SCT080 OVC090 M13/M15 A3046 RMK AO2FDK,07:00
KGCC,WESTON WYOMING,KGCC 142300Z AUTO 17003KT 10SM CLR M03/M09 RMK T10301090 MADISHFGCC,23:00
KUGN,MCHENRY ILLINOIS,KUGN 170400Z AUTO 08013KT 10SM OVC022 M03/M08 A3002 RMK T10301080 MADISHFUGN,04:00
KYNG,GREENE OHIO,KYNG 010100Z AUTO 22003KT 10SM M16/M23 A3031 RMK T11601230 MADISHFYNG,01:00
KHAO,ROSS OHIO,KHAO 101000Z AUTO 05006KT 10SM CLR M07/M10 A3054 RMK T10701100 MADISHFHAO,10:00
KEHR,HENDERSON KENTUCKY,KEHR 010300Z AUTO 09003KT 10SM FEW045 OVC085 M04/M09 A3023 RMK T10401090 MADISHFEHR,03:00
KCVG,UNION KENTUCKY,KCVG 010300Z AUTO 07008KT 9SM -SN OVC060 M08/M14 A3027 RMK T10801140 MADISHFCVG,03:00
KCVG,CRITTENDEN KENTUCKY,KCVG 010300Z AUTO 07008KT 9SM -SN OVC060 M08/M14 A3027 RMK T10801140 MADISHFCVG,03:00
KBWI,CARROLL MARYLAND,KBWI 010700Z AUTO 00000KT 10SM CLR M11/M15 A3044 RMK T11101150 MADISHFBWI,07:00
KLOZ,LIVINGSTON KENTUCKY,KLOZ 151600Z AUTO 24007KT 10SM BKN024 BKN030 OVC039 12/07 A2981 RMK T01200070 MADISHFLOZ,16:00
KGRI,HOWARD NEBRASKA,KGRI 191600Z AUTO 12010KT 10SM BKN013 M10/M13 A3036 RMK T11001130 MADISHFGRI,16:00
KAOH,MERCER OHIO,KAOH 200100Z AUTO 10006KT 10SM CLR M01/M06 A3046 RMK T10101060 MADISHFAOH,01:00
KMNM,MENOMINEE MICHIGAN,KMNM 232200Z AUTO 09009KT 10SM OVC033 01/M02 A2985 RMK T00101020 MADISHFMNM,22:00
KCVG,CRITTENDEN KENTUCKY,KCVG 151600Z AUTO 28011KT 7SM CLR 04/M03 A2982 RMK T00401030 MADISHFCVG,16:00
KLUK,CALDWELL KENTUCKY,KLUK 151700Z AUTO 28013KT 10SM CLR 06/M05 A2987 RMK T00601050 MADISHFLUK,17:00
KRFD,WINNEBAGO ILLINOIS,KRFD 170300Z AUTO 09014KT 10SM OVC021 M03/M08 A3003 RMK T10301080 MADISHFRFD,03:00
KHSI,CLAY NEBRASKA,KHSI 150300Z AUTO 36010KT 10SM CLR M08/M14 A3004 RMK T10801140 MADISHFHSI,03:00
KAGC,LAWRENCE PENNSYLVANIA,KAGC 200100Z AUTO 06003KT 10SM CLR M03/M10 A3052 RMK T10301100 MADISHFAGC,01:00
KHTL,ALGER MICHIGAN,KHTL 230400Z AUTO 11003KT 10SM CLR M06/M09 A3037 RMK T10601090 MADISHFHTL,04:00
KYNG,WARREN OHIO,KYNG 200100Z AUTO 13004KT 10SM CLR M03/M10 A3053 RMK T10301100 MADISHFYNG,01:00
KPAH,MASSAC ILLINOIS,KPAH 151700Z AUTO 01011KT 10SM SCT075 OVC090 02/M06 A2997 RMK T00201060 MADISHFPAH,17:00
KFFT,CHRISTIAN KENTUCKY,KFFT 152000Z AUTO 29008KT 10SM OVC065 05/M04 A2988 RMK T00501040 MADISHFFFT,20:00
KODX,GREELEY NEBRASKA,KODX 161500Z AUTO 14006KT 2SM -SN BR OVC007 M11/M13 A2988 RMK T11101130 VRB06KT  MADISHFODX,15:00
KPHL,PHILADELPHIA PENNSYLVANIA,KPHL 111200Z AUTO 09005KT 1 1/2SM -SN BR BKN006 OVC011 M01/M03 A3029 RMK T10101030 MADISHFPHL,12:00
KEHR,HENDERSON KENTUCKY,KEHR 151600Z AUTO 32010KT 10SM CLR M01/M04 A2998 RMK T10101040 MADISHFEHR,16:00
KCVG,UNION KENTUCKY,KCVG 151600Z AUTO 28011KT 7SM CLR 04/M03 A2982 RMK T00401030 MADISHFCVG,16:00
KHNB,JASPER INDIANA,KHNB 111350Z AUTO 07004KT 5SM -RA BR OVC003 04/04 A3009 RMK P0003 T00400040 MADISHFHNB,13:45
KGSH,BENTON INDIANA,KGSH 111330Z AUTO 06008KT 2SM BR OVC004 M04/M04 A3017 RMK T10401040 MADISHFGSH,13:30
KSET,HARDIN ILLINOIS,KSET 151600Z AUTO 33008KT 10SM OVC090 M06/M13 A3007 RMK T10601130 MADISHFSET,16:00
KFNB,DAWSON NEBRASKA,KFNB 161400Z AUTO 00000KT 7SM CLR M17/M18 A3006 RMK T11701180 MADISHFFNB,14:00
KEVV,POSEY INDIANA,KEVV 151500Z AUTO 32006KT 10SM BKN015 M01/M04 A2995 RMK T10101040 MADISHFEVV,15:00
KBMG,SPENCER INDIANA,KBMG 151500Z AUTO /////KT RMK MADISHFBMG,15:00
KROA,ROCKINGHAM VIRGINIA,KROA 171400Z AUTO 15003KT 10SM OVC039 01/M05 A3010 RMK T00101050 MADISHFROA,14:00
KOFP,CAROLINE VIRGINIA,KOFP 200200Z AUTO 00000KT 10SM CLR 03/M07 A3060 RMK T00301070 MADISHFOFP,02:00
KRFD,WINNEBAGO ILLINOIS,KRFD 270100Z AUTO 09009KT 10SM BKN018 OVC041 M06/M09 A3036 RMK T10601090 MADISHFRFD,01:00
KEYE,FAYETTE INDIANA,KEYE 010100Z AUTO 11006KT 1 1/2SM -SN OVC021 M12/M16 A3030 RMK T11201160 MADISHFEYE,01:00
KCGI,BOLLINGER MISSOURI,KCGI 151500Z AUTO 35011KT 10SM OVC110 00/M05 A3001 RMK T00001050 MADISHFCGI,15:00
KJEF,SCOTT MISSOURI,KJEF 151500Z AUTO 32006KT 10SM OVC075 M06/M11 A3006 RMK T10601110 MADISHFJEF,15:00
KCHO,WARREN VIRGINIA,KCHO 171400Z AUTO 00000KT 10SM OVC049 02/M06 A3010 RMK T00201060 MADISHFCHO,14:00
KLHQ,CARROLL OHIO,KLHQ 200100Z AUTO 08006KT 10SM CLR 00/M06 A3046 RMK T00001060 MADISHFLHQ,01:00
KPOF,STODDARD MISSOURI,KPOF 151500Z AUTO 04007KT 10SM OVC100 02/M04 A2997 RMK T00201040 MADISHFPOF,15:00
KDPA,WAYNE ILLINOIS,KDPA 151400Z AUTO 28012KT 10SM CLR M12/M17 A2987 RMK T11201170 MADISHFDPA,14:00
KMNM,MENOMINEE MICHIGAN,KMNM 071200Z AUTO 04007KT 2SM UP BR OVC007 M07/M08 A2998 RMK P0000 T10701080 MADISHFMNM,12:00
KJLN,JASPER MISSOURI,KJLN 150720Z AUTO 02010KT 6SM HZ CLR M03/M06 A2996 RMK T10301060 MADISHFJLN,07:15
KELM,GREENE PENNSYLVANIA,KELM 010100Z AUTO 25005KT 10SM CLR M14/M26 A3028 RMK T11401260 MADISHFELM,01:00
KHSI,CLAY NEBRASKA,KHSI 191600Z AUTO 12012KT 6SM BR OVC012 M10/M12 A3034 RMK T11001120 MADISHFHSI,16:00
KZZV,COSHOCTON OHIO,KZZV 200100Z AUTO 07005KT 10SM CLR 00/M07 A3048 RMK T00001070 MADISHFZZV,01:00
KJLN,CARTER MISSOURI,KJLN 151400Z AUTO 06014KT 4SM -SN BKN060 OVC079 M04/M07 A2990 RMK T10401070 MADISHFJLN,14:00
KBWI,CARROLL MARYLAND,KBWI 171600Z AUTO 15003KT 10SM CLR 01/M07 A3017 RMK T00101070 MADISHFBWI,16:00
KPIA,EDWARDS ILLINOIS,KPIA 151400Z AUTO 31006KT 10SM CLR M12/M16 A2998 RMK T11201160 MADISHFPIA,14:00
KMTO,WABASH ILLINOIS,KMTO 151400Z AUTO 29010KT 10SM CLR M07/M09 A2995 RMK T10701090 MADISHFMTO,14:00
KPOF,PULASKI MISSOURI,KPOF 151100Z AUTO 35011KT 7SM CLR 03/M01 A2988 RMK T00301010 MADISHFPOF,11:00
KEAR,KEARNEY NEBRASKA,KEAR 150300Z AUTO 36011KT 10SM OVC100 M08/M14 A3003 RMK T10801140 MADISHFEAR,03:00
KILN,HIGHLAND OHIO,KILN 010100Z AUTO 17004KT 10SM OVC048 M12/M17 A3032 RMK T11201170 MADISHFILN,01:00
KLXT,RIPLEY MISSOURI,KLXT 151400Z AUTO 04008KT 10SM BKN060 OVC075 M09/M15 A3005 RMK T10901150 MADISHFLXT,14:00
KSGF,CHRISTIAN MISSOURI,KSGF 150850Z AUTO 01008KT 8SM SCT013 M03/M07 A2990 RMK T10301070 MADISHFSGF,08:50
KLXT,CAMDEN MISSOURI,KLXT 151000Z AUTO 01011KT 10SM CLR M09/M13 A3000 RMK T10901130 MADISHFLXT,10:00
KJYR,POLK NEBRASKA,KJYR 161700Z AUTO 12009KT 10SM OVC025 M11/M13 A2993 RMK AO2JYR,17:00
KCNK,JEWELL KANSAS,KCNK 191600Z AUTO 10010G15KT 10SM BKN120 M07/M10 A3036 RMK T10701100 MADISHFCNK,16:00
KJLN,SCOTLAND MISSOURI,KJLN 301700Z AUTO 01008KT 3SM BR OVC004 02/02 A3011 RMK T00200020 MADISHFJLN,17:00
KCOU,CLARK MISSOURI,KCOU 301700Z AUTO 02011KT 10SM OVC007 03/02 A3011 RMK T00300020 CIG 6V10  MADISHFCOU,17:00
KCWI,CLINTON IOWA,KCWI 301800Z AUTO 36010KT 10SM OVC060 03/M03 A3020 RMK T00301030 MADISHFCWI,18:00
KFOD,JONES IOWA,KFOD 301530Z AUTO 36005KT 5SM -SN SCT028 OVC033 M02/M07 A3037 RMK T10201070 MADISHFFOD,15:30
KCID,LOUISA IOWA,KCID 301900Z AUTO 01015KT 10SM BKN050 OVC070 01/M05 A3020 RMK T00101050 MADISHFCID,19:00
KDBQ,DUBUQUE IOWA,KDBQ 301330Z AUTO 01010KT 10SM OVC085 M01/M06 A3029 RMK T10101060 MADISHFDBQ,13:25
KSUX,LEE IOWA,KSUX 301900Z AUTO 32011KT 10SM FEW070 01/M09 A3032 RMK T00101090 MADISHFSUX,19:00
KSET,CARROLL ILLINOIS,KSET 301700Z AUTO /////KT A3010 RMK MADISHFSET,17:00
KY50,MARQUETTE WISCONSIN,KY50 101900Z AUTO 06011KT 10SM OVC022 02/M03 A3006 RMK T00201030 MADISHFY50,19:00
KSBM,SHEBOYGAN WISCONSIN,KSBM 101900Z AUTO 06014KT 10SM OVC025 03/M02 A3009 RMK T00301020 MADISHFSBM,19:00
KBTL,BEADLE SOUTH DAKOTA,KBTL 101300Z AUTO 12005KT 10SM CLR 13/11 A3017 RMK T01300110 MADISHFBTL,13:00
KSUX,DIXON NEBRASKA,KSUX 281800Z AUTO 14007KT 10SM OVC011 M03/M05 A3043 RMK T10301050 MADISHFSUX,18:00
KENW,KENOSHA WISCONSIN,KENW 302350Z AUTO 01009G14KT 10SM OVC016 04/02 A3006 RMK T00400020 MADISHFENW,23:45
KY50,MARQUETTE WISCONSIN,KY50 301700Z AUTO 33005KT 10SM OVC100 02/M08 A3030 RMK T00201080 MADISHFY50,17:00
KMKE,MILWAUKEE WISCONSIN,KMKE 302000Z AUTO 36009KT 10SM BKN013 OVC021 05/02 A3013 RMK T00500020 MADISHFMKE,20:00
KRAC,RACINE WISCONSIN,KRAC 302050Z AUTO 04013KT 10SM OVC043 06/01 A3012 RMK T00600010 MADISHFRAC,20:45
KBTL,BEADLE SOUTH DAKOTA,KBTL 051500Z AUTO 26005KT 10SM FEW033 BKN047 OVC055 05/M01 A3019 RMK T00501010 MADISHFBTL,15:00
